{"crs":{"properties":{"name":"urn:ogc:def:crs:OGC:1.3:CRS84"},"type":"name"},"features":[{"collection":"gpzone","geometry":{"bbox":[70.2745229130001,52.9638879390001,70.2764148420001,52.965160763],"coordinates":[[[[70.2745229130001,52.964726457],[70.274629872,52.9648021930001],[70.2746446260001,52.9648353960001],[70.2746600120001,52.964890262],[70.274757632,52.9649294120001],[70.2748667910001,52.964891799],[70.274940659,52.964872825],[70.27505089,52.964871868],[70.275133661,52.964874482],[70.2752230620001,52.9649153710001],[70.2753797240001,52.964994007],[70.2754859020001,52.9650430830001],[70.2755079980001,52.9650445570001],[70.2755529620001,52.965065833],[70.275534549,52.965095992],[70.2759443960001,52.965160763],[70.2759567000001,52.9648273340001],[70.2764138620001,52.9648133630001],[70.2764148420001,52.9646583590001],[70.276337611,52.9645623650001],[70.2762857390001,52.9645794830001],[70.2760816740001,52.964387926],[70.275924693,52.964392623],[70.2758449230001,52.964398315],[70.2758108800001,52.9643652780001],[70.275805689,52.9642819920001],[70.2758336140001,52.964200083],[70.275831178,52.9641167720001],[70.2758709070001,52.964061428],[70.275953579,52.9640607100001],[70.275993574,52.964108695],[70.2760000580001,52.964141972],[70.2760305180001,52.9641467070001],[70.2761446580001,52.9639023840001],[70.2760808370001,52.9638879390001],[70.275792353,52.964108776],[70.275646174,52.964200045],[70.275481239,52.964309809],[70.275158032,52.96447428],[70.27477695,52.964639253],[70.2746340470001,52.964689745],[70.2745229130001,52.964726457]]]],"type":"MultiPolygon"},"id":"10209233.","properties":{"_release_layer_kind":"allowed","_source_collection":"gpzone-jil","admterr_id/locality_admterr_id":"kz.11.70.20.100","admterr_id/locality_admterr_id/geometry":{"bbox":[70.0990001415679,52.8606953572399,70.3179749926171,53.0082769671341]},"admterr_id/locality_admterr_id/name":"г. Щучинск","admterr_id/locality_admterr_id/name_kk":"Щучинск қ.","admterr_id/locality_admterr_id/name_ru":"г. Щучинск","admterr_id/oblast_admterr_id":"kz.11","admterr_id/oblast_admterr_id/geometry":{"bbox":[65.3511897767069,50.0393502247237,74.2592871444736,53.6843580486921]},"admterr_id/oblast_admterr_id/name":"Акмолинская область","admterr_id/oblast_admterr_id/name_kk":"Ақмола облысы","admterr_id/oblast_admterr_id/name_ru":"Акмолинская область","admterr_id/rayon_admterr_id":"kz.11.70","admterr_id/rayon_admterr_id/geometry":{"bbox":[69.3005628783148,52.3987723271093,70.8892456332102,53.430480019049]},"admterr_id/rayon_admterr_id/name":"Бурабайский район","admterr_id/rayon_admterr_id/name_kk":"Бурабай ауданы","admterr_id/rayon_admterr_id/name_ru":"Бурабайский район","functional":"Усадебный застройка","gpsubtype_id":11010000,"id":"10209233.","implementation":"Проектируемые","name_usl":"Территория усадебной застройки","object_id_i32":200,"usl_i32":11010000},"type":"Feature"},{"collection":"gpzone","geometry":{"bbox":[70.2352228620001,52.9498720890001,70.238777123,52.95147411],"coordinates":[[[[70.2352228620001,52.9511127600001],[70.2378560010001,52.95147411],[70.2381905020001,52.9512150520001],[70.23852443,52.950936293],[70.238777123,52.9506648070001],[70.235897896,52.9498720890001],[70.235747286,52.9501065680001],[70.2354535110001,52.9506444240001],[70.2352228620001,52.9511127600001]]]],"type":"MultiPolygon"},"id":"10209234.","properties":{"_release_layer_kind":"allowed","_source_collection":"gpzone-jil","admterr_id/locality_admterr_id":"kz.11.70.20.100","admterr_id/locality_admterr_id/geometry":{"bbox":[70.0990001415679,52.8606953572399,70.3179749926171,53.0082769671341]},"admterr_id/locality_admterr_id/name":"г. Щучинск","admterr_id/locality_admterr_id/name_kk":"Щучинск қ.","admterr_id/locality_admterr_id/name_ru":"г. Щучинск","admterr_id/oblast_admterr_id":"kz.11","admterr_id/oblast_admterr_id/geometry":{"bbox":[65.3511897767069,50.0393502247237,74.2592871444736,53.6843580486921]},"admterr_id/oblast_admterr_id/name":"Акмолинская область","admterr_id/oblast_admterr_id/name_kk":"Ақмола облысы","admterr_id/oblast_admterr_id/name_ru":"Акмолинская область","admterr_id/rayon_admterr_id":"kz.11.70","admterr_id/rayon_admterr_id/geometry":{"bbox":[69.3005628783148,52.3987723271093,70.8892456332102,53.430480019049]},"admterr_id/rayon_admterr_id/name":"Бурабайский район","admterr_id/rayon_admterr_id/name_kk":"Бурабай ауданы","admterr_id/rayon_admterr_id/name_ru":"Бурабайский район","functional":"Усадебный застройка","gpsubtype_id":11010000,"id":"10209234.","implementation":"Проектируемые","name_usl":"Территория усадебной застройки","object_id_i32":201,"usl_i32":11010000},"type":"Feature"},{"collection":"gpzone","geometry":{"bbox":[70.2359286010001,52.9492311290001,70.2393835180001,52.9505564780001],"coordinates":[[[[70.2388350410001,52.9505564780001],[70.2389354970001,52.950370875],[70.2390367840001,52.950074429],[70.239075164,52.9498548810001],[70.239083097,52.949569094],[70.2390706370001,52.9494214160001],[70.2391334760001,52.949342051],[70.2392463190001,52.949301661],[70.2393835180001,52.949258596],[70.2363081140001,52.9492311290001],[70.2359286010001,52.949761531],[70.2388350410001,52.9505564780001]]]],"type":"MultiPolygon"},"id":"10209235.","properties":{"_release_layer_kind":"allowed","_source_collection":"gpzone-jil","admterr_id/locality_admterr_id":"kz.11.70.20.100","admterr_id/locality_admterr_id/geometry":{"bbox":[70.0990001415679,52.8606953572399,70.3179749926171,53.0082769671341]},"admterr_id/locality_admterr_id/name":"г. Щучинск","admterr_id/locality_admterr_id/name_kk":"Щучинск қ.","admterr_id/locality_admterr_id/name_ru":"г. Щучинск","admterr_id/oblast_admterr_id":"kz.11","admterr_id/oblast_admterr_id/geometry":{"bbox":[65.3511897767069,50.0393502247237,74.2592871444736,53.6843580486921]},"admterr_id/oblast_admterr_id/name":"Акмолинская область","admterr_id/oblast_admterr_id/name_kk":"Ақмола облысы","admterr_id/oblast_admterr_id/name_ru":"Акмолинская область","admterr_id/rayon_admterr_id":"kz.11.70","admterr_id/rayon_admterr_id/geometry":{"bbox":[69.3005628783148,52.3987723271093,70.8892456332102,53.430480019049]},"admterr_id/rayon_admterr_id/name":"Бурабайский район","admterr_id/rayon_admterr_id/name_kk":"Бурабай ауданы","admterr_id/rayon_admterr_id/name_ru":"Бурабайский район","functional":"Усадебный застройка","gpsubtype_id":11010000,"id":"10209235.","implementation":"Проектируемые","name_usl":"Территория усадебной застройки","object_id_i32":202,"usl_i32":11010000},"type":"Feature"},{"collection":"gpzone","geometry":{"bbox":[70.239168168,52.949325206,70.2402413020001,52.95036621],"coordinates":[[[[70.239168168,52.9502251050001],[70.239905311,52.95036621],[70.2402413020001,52.9497401340001],[70.2402382070001,52.9496342470001],[70.240188489,52.949605123],[70.240089626,52.949566572],[70.2399379080001,52.9495309430001],[70.239875544,52.94948715],[70.2398454610001,52.949433223],[70.239729234,52.9493578770001],[70.23952059,52.949325206],[70.2393381030001,52.9493514230001],[70.2392143390001,52.949436243],[70.2392144990001,52.9495810180001],[70.2392168580001,52.949909409],[70.239168168,52.9502251050001]]]],"type":"MultiPolygon"},"id":"10209236.","properties":{"_release_layer_kind":"allowed","_source_collection":"gpzone-jil","admterr_id/locality_admterr_id":"kz.11.70.20.100","admterr_id/locality_admterr_id/geometry":{"bbox":[70.0990001415679,52.8606953572399,70.3179749926171,53.0082769671341]},"admterr_id/locality_admterr_id/name":"г. Щучинск","admterr_id/locality_admterr_id/name_kk":"Щучинск қ.","admterr_id/locality_admterr_id/name_ru":"г. Щучинск","admterr_id/oblast_admterr_id":"kz.11","admterr_id/oblast_admterr_id/geometry":{"bbox":[65.3511897767069,50.0393502247237,74.2592871444736,53.6843580486921]},"admterr_id/oblast_admterr_id/name":"Акмолинская область","admterr_id/oblast_admterr_id/name_kk":"Ақмола облысы","admterr_id/oblast_admterr_id/name_ru":"Акмолинская область","admterr_id/rayon_admterr_id":"kz.11.70","admterr_id/rayon_admterr_id/geometry":{"bbox":[69.3005628783148,52.3987723271093,70.8892456332102,53.430480019049]},"admterr_id/rayon_admterr_id/name":"Бурабайский район","admterr_id/rayon_admterr_id/name_kk":"Бурабай ауданы","admterr_id/rayon_admterr_id/name_ru":"Бурабайский район","functional":"Усадебный застройка","gpsubtype_id":11010000,"id":"10209236.","implementation":"Проектируемые","name_usl":"Территория усадебной застройки","object_id_i32":203,"usl_i32":11010000},"type":"Feature"},{"collection":"gpzone","geometry":{"bbox":[70.237987074,52.950332496,70.2481725170001,52.952352971],"coordinates":[[[[70.237987074,52.9514874860001],[70.2385670670001,52.9515464840001],[70.2413050530001,52.9518724370001],[70.2438178210001,52.952156012],[70.2454154530001,52.952339167],[70.245810873,52.952352971],[70.2481725170001,52.952063992],[70.2481625760001,52.9520025030001],[70.2481633360001,52.9518892020001],[70.248082095,52.9517569060001],[70.2479535080001,52.951676745],[70.2477400750001,52.9516194880001],[70.247163072,52.9515235200001],[70.246803431,52.9514798480001],[70.2461413620001,52.9513993950001],[70.2448137310001,52.9512582250001],[70.243578804,52.9510842290001],[70.2416725140001,52.950790452],[70.2391017080001,52.950332496],[70.2389470620001,52.950614627],[70.2386872110001,52.9509198370001],[70.238329574,52.9512234320001],[70.237987074,52.9514874860001]]]],"type":"MultiPolygon"},"id":"10209237.","properties":{"_release_layer_kind":"allowed","_source_collection":"gpzone-jil","admterr_id/locality_admterr_id":"kz.11.70.20.100","admterr_id/locality_admterr_id/geometry":{"bbox":[70.0990001415679,52.8606953572399,70.3179749926171,53.0082769671341]},"admterr_id/locality_admterr_id/name":"г. Щучинск","admterr_id/locality_admterr_id/name_kk":"Щучинск қ.","admterr_id/locality_admterr_id/name_ru":"г. Щучинск","admterr_id/oblast_admterr_id":"kz.11","admterr_id/oblast_admterr_id/geometry":{"bbox":[65.3511897767069,50.0393502247237,74.2592871444736,53.6843580486921]},"admterr_id/oblast_admterr_id/name":"Акмолинская область","admterr_id/oblast_admterr_id/name_kk":"Ақмола облысы","admterr_id/oblast_admterr_id/name_ru":"Акмолинская область","admterr_id/rayon_admterr_id":"kz.11.70","admterr_id/rayon_admterr_id/geometry":{"bbox":[69.3005628783148,52.3987723271093,70.8892456332102,53.430480019049]},"admterr_id/rayon_admterr_id/name":"Бурабайский район","admterr_id/rayon_admterr_id/name_kk":"Бурабай ауданы","admterr_id/rayon_admterr_id/name_ru":"Бурабайский район","functional":"Усадебный застройка","gpsubtype_id":11010000,"id":"10209237.","implementation":"Проектируемые","name_usl":"Территория усадебной застройки","object_id_i32":204,"usl_i32":11010000},"type":"Feature"},{"collection":"gpzone","geometry":{"bbox":[70.2477183190001,52.9510407540001,70.250805014,52.952041745],"coordinates":[[[[70.24835734,52.952041745],[70.2508020760001,52.9517286810001],[70.250805014,52.951048728],[70.2504043340001,52.9510407540001],[70.2480079000001,52.951058355],[70.2477183190001,52.9514958990001],[70.2480203870001,52.9515639300001],[70.2481084630001,52.951599188],[70.2482254380001,52.9516826820001],[70.2482937940001,52.951748588],[70.248335479,52.9518424340001],[70.248349074,52.951915743],[70.24835734,52.952041745]]]],"type":"MultiPolygon"},"id":"10209238.","properties":{"_release_layer_kind":"allowed","_source_collection":"gpzone-jil","admterr_id/locality_admterr_id":"kz.11.70.20.100","admterr_id/locality_admterr_id/geometry":{"bbox":[70.0990001415679,52.8606953572399,70.3179749926171,53.0082769671341]},"admterr_id/locality_admterr_id/name":"г. Щучинск","admterr_id/locality_admterr_id/name_kk":"Щучинск қ.","admterr_id/locality_admterr_id/name_ru":"г. Щучинск","admterr_id/oblast_admterr_id":"kz.11","admterr_id/oblast_admterr_id/geometry":{"bbox":[65.3511897767069,50.0393502247237,74.2592871444736,53.6843580486921]},"admterr_id/oblast_admterr_id/name":"Акмолинская область","admterr_id/oblast_admterr_id/name_kk":"Ақмола облысы","admterr_id/oblast_admterr_id/name_ru":"Акмолинская область","admterr_id/rayon_admterr_id":"kz.11.70","admterr_id/rayon_admterr_id/geometry":{"bbox":[69.3005628783148,52.3987723271093,70.8892456332102,53.430480019049]},"admterr_id/rayon_admterr_id/name":"Бурабайский район","admterr_id/rayon_admterr_id/name_kk":"Бурабай ауданы","admterr_id/rayon_admterr_id/name_ru":"Бурабайский район","functional":"Усадебный застройка","gpsubtype_id":11010000,"id":"10209238.","implementation":"Проектируемые","name_usl":"Территория усадебной застройки","object_id_i32":205,"usl_i32":11010000},"type":"Feature"},{"collection":"gpzone","geometry":{"bbox":[70.2462452650001,52.95189565,70.250787276,52.9530426910001],"coordinates":[[[[70.250581627,52.9530426910001],[70.25062999,52.9529360130001],[70.250787276,52.95189565],[70.2462452650001,52.9524779650001],[70.250581627,52.9530426910001]]]],"type":"MultiPolygon"},"id":"10209239.","properties":{"_release_layer_kind":"allowed","_source_collection":"gpzone-jil","admterr_id/locality_admterr_id":"kz.11.70.20.100","admterr_id/locality_admterr_id/geometry":{"bbox":[70.0990001415679,52.8606953572399,70.3179749926171,53.0082769671341]},"admterr_id/locality_admterr_id/name":"г. Щучинск","admterr_id/locality_admterr_id/name_kk":"Щучинск қ.","admterr_id/locality_admterr_id/name_ru":"г. Щучинск","admterr_id/oblast_admterr_id":"kz.11","admterr_id/oblast_admterr_id/geometry":{"bbox":[65.3511897767069,50.0393502247237,74.2592871444736,53.6843580486921]},"admterr_id/oblast_admterr_id/name":"Акмолинская область","admterr_id/oblast_admterr_id/name_kk":"Ақмола облысы","admterr_id/oblast_admterr_id/name_ru":"Акмолинская область","admterr_id/rayon_admterr_id":"kz.11.70","admterr_id/rayon_admterr_id/geometry":{"bbox":[69.3005628783148,52.3987723271093,70.8892456332102,53.430480019049]},"admterr_id/rayon_admterr_id/name":"Бурабайский район","admterr_id/rayon_admterr_id/name_kk":"Бурабай ауданы","admterr_id/rayon_admterr_id/name_ru":"Бурабайский район","functional":"Усадебный застройка","gpsubtype_id":11010000,"id":"10209239.","implementation":"Проектируемые","name_usl":"Территория усадебной застройки","object_id_i32":206,"usl_i32":11010000},"type":"Feature"},{"collection":"gpzone","geometry":{"bbox":[70.237729707,52.9516494690001,70.2505034960001,52.9546178160001],"coordinates":[[[[70.2414177520001,52.9532706690001],[70.2414220900001,52.9532681680001],[70.242108935,52.9527856300001],[70.2422623950001,52.952706715],[70.2423987880001,52.952670895],[70.2425587710001,52.9526584220001],[70.2427193610001,52.952666725],[70.2428417090001,52.952698911],[70.2435146060001,52.9529147270001],[70.245335013,52.9535181730001],[70.2470208930001,52.954064595],[70.248720716,52.9546178160001],[70.249233529,52.9542157700001],[70.2501531400001,52.953468],[70.2505034960001,52.9531504770001],[70.2465819430001,52.9526254690001],[70.2459749810001,52.9525494650001],[70.245626454,52.9525377160001],[70.2443268170001,52.9523790650001],[70.240968396,52.952003706],[70.2386974090001,52.9517371170001],[70.237729707,52.9516494690001],[70.2414177520001,52.9532706690001]]]],"type":"MultiPolygon"},"id":"10209240.","properties":{"_release_layer_kind":"allowed","_source_collection":"gpzone-jil","admterr_id/locality_admterr_id":"kz.11.70.20.100","admterr_id/locality_admterr_id/geometry":{"bbox":[70.0990001415679,52.8606953572399,70.3179749926171,53.0082769671341]},"admterr_id/locality_admterr_id/name":"г. Щучинск","admterr_id/locality_admterr_id/name_kk":"Щучинск қ.","admterr_id/locality_admterr_id/name_ru":"г. Щучинск","admterr_id/oblast_admterr_id":"kz.11","admterr_id/oblast_admterr_id/geometry":{"bbox":[65.3511897767069,50.0393502247237,74.2592871444736,53.6843580486921]},"admterr_id/oblast_admterr_id/name":"Акмолинская область","admterr_id/oblast_admterr_id/name_kk":"Ақмола облысы","admterr_id/oblast_admterr_id/name_ru":"Акмолинская область","admterr_id/rayon_admterr_id":"kz.11.70","admterr_id/rayon_admterr_id/geometry":{"bbox":[69.3005628783148,52.3987723271093,70.8892456332102,53.430480019049]},"admterr_id/rayon_admterr_id/name":"Бурабайский район","admterr_id/rayon_admterr_id/name_kk":"Бурабай ауданы","admterr_id/rayon_admterr_id/name_ru":"Бурабайский район","functional":"Усадебный застройка","gpsubtype_id":11010000,"id":"10209240.","implementation":"Проектируемые","name_usl":"Территория усадебной застройки","object_id_i32":207,"usl_i32":11010000},"type":"Feature"},{"collection":"gpzone","geometry":{"bbox":[70.2415822610001,52.9527737280001,70.2441156190001,52.954064234],"coordinates":[[[[70.2415822610001,52.953336495],[70.2415892120001,52.9533392050001],[70.2432871830001,52.954064234],[70.2441156190001,52.9532535290001],[70.242813014,52.9528104410001],[70.2426974970001,52.9527768090001],[70.2425737090001,52.9527737280001],[70.242472945,52.9527746040001],[70.2423637910001,52.952801875],[70.242291439,52.952834367],[70.2415822610001,52.953336495]]]],"type":"MultiPolygon"},"id":"10209241.","properties":{"_release_layer_kind":"allowed","_source_collection":"gpzone-jil","admterr_id/locality_admterr_id":"kz.11.70.20.100","admterr_id/locality_admterr_id/geometry":{"bbox":[70.0990001415679,52.8606953572399,70.3179749926171,53.0082769671341]},"admterr_id/locality_admterr_id/name":"г. Щучинск","admterr_id/locality_admterr_id/name_kk":"Щучинск қ.","admterr_id/locality_admterr_id/name_ru":"г. Щучинск","admterr_id/oblast_admterr_id":"kz.11","admterr_id/oblast_admterr_id/geometry":{"bbox":[65.3511897767069,50.0393502247237,74.2592871444736,53.6843580486921]},"admterr_id/oblast_admterr_id/name":"Акмолинская область","admterr_id/oblast_admterr_id/name_kk":"Ақмола облысы","admterr_id/oblast_admterr_id/name_ru":"Акмолинская область","admterr_id/rayon_admterr_id":"kz.11.70","admterr_id/rayon_admterr_id/geometry":{"bbox":[69.3005628783148,52.3987723271093,70.8892456332102,53.430480019049]},"admterr_id/rayon_admterr_id/name":"Бурабайский район","admterr_id/rayon_admterr_id/name_kk":"Бурабай ауданы","admterr_id/rayon_admterr_id/name_ru":"Бурабайский район","functional":"Усадебный застройка","gpsubtype_id":11010000,"id":"10209241.","implementation":"Проектируемые","name_usl":"Территория усадебной застройки","object_id_i32":208,"usl_i32":11010000},"type":"Feature"},{"collection":"gpzone","geometry":{"bbox":[70.243453032,52.9532984240001,70.2466242340001,52.9550421370001],"coordinates":[[[[70.243453032,52.95414047],[70.2455471120001,52.9550421370001],[70.2466242340001,52.9540667410001],[70.2442744420001,52.9532984240001],[70.243453032,52.95414047]]]],"type":"MultiPolygon"},"id":"10209242.","properties":{"_release_layer_kind":"allowed","_source_collection":"gpzone-jil","admterr_id/locality_admterr_id":"kz.11.70.20.100","admterr_id/locality_admterr_id/geometry":{"bbox":[70.0990001415679,52.8606953572399,70.3179749926171,53.0082769671341]},"admterr_id/locality_admterr_id/name":"г. Щучинск","admterr_id/locality_admterr_id/name_kk":"Щучинск қ.","admterr_id/locality_admterr_id/name_ru":"г. Щучинск","admterr_id/oblast_admterr_id":"kz.11","admterr_id/oblast_admterr_id/geometry":{"bbox":[65.3511897767069,50.0393502247237,74.2592871444736,53.6843580486921]},"admterr_id/oblast_admterr_id/name":"Акмолинская область","admterr_id/oblast_admterr_id/name_kk":"Ақмола облысы","admterr_id/oblast_admterr_id/name_ru":"Акмолинская область","admterr_id/rayon_admterr_id":"kz.11.70","admterr_id/rayon_admterr_id/geometry":{"bbox":[69.3005628783148,52.3987723271093,70.8892456332102,53.430480019049]},"admterr_id/rayon_admterr_id/name":"Бурабайский район","admterr_id/rayon_admterr_id/name_kk":"Бурабай ауданы","admterr_id/rayon_admterr_id/name_ru":"Бурабайский район","functional":"Усадебный застройка","gpsubtype_id":11010000,"id":"10209242.","implementation":"Проектируемые","name_usl":"Территория усадебной застройки","object_id_i32":209,"usl_i32":11010000},"type":"Feature"},{"collection":"gpzone","geometry":{"bbox":[70.2457055340001,52.9541170890001,70.248637993,52.955794821],"coordinates":[[[[70.2457055340001,52.9551116540001],[70.2472933500001,52.955794821],[70.248637993,52.9547069070001],[70.246792278,52.9541170890001],[70.2457055340001,52.9551116540001]]]],"type":"MultiPolygon"},"id":"10209243.","properties":{"_release_layer_kind":"allowed","_source_collection":"gpzone-jil","admterr_id/locality_admterr_id":"kz.11.70.20.100","admterr_id/locality_admterr_id/geometry":{"bbox":[70.0990001415679,52.8606953572399,70.3179749926171,53.0082769671341]},"admterr_id/locality_admterr_id/name":"г. Щучинск","admterr_id/locality_admterr_id/name_kk":"Щучинск қ.","admterr_id/locality_admterr_id/name_ru":"г. Щучинск","admterr_id/oblast_admterr_id":"kz.11","admterr_id/oblast_admterr_id/geometry":{"bbox":[65.3511897767069,50.0393502247237,74.2592871444736,53.6843580486921]},"admterr_id/oblast_admterr_id/name":"Акмолинская область","admterr_id/oblast_admterr_id/name_kk":"Ақмола облысы","admterr_id/oblast_admterr_id/name_ru":"Акмолинская область","admterr_id/rayon_admterr_id":"kz.11.70","admterr_id/rayon_admterr_id/geometry":{"bbox":[69.3005628783148,52.3987723271093,70.8892456332102,53.430480019049]},"admterr_id/rayon_admterr_id/name":"Бурабайский район","admterr_id/rayon_admterr_id/name_kk":"Бурабай ауданы","admterr_id/rayon_admterr_id/name_ru":"Бурабайский район","functional":"Усадебный застройка","gpsubtype_id":11010000,"id":"10209243.","implementation":"Проектируемые","name_usl":"Территория усадебной застройки","object_id_i32":210,"usl_i32":11010000},"type":"Feature"},{"collection":"gpzone","geometry":{"bbox":[70.2445768040001,52.9552533230001,70.2470709770001,52.956457986],"coordinates":[[[[70.2445768040001,52.956070647],[70.245489128,52.956457986],[70.2456926300001,52.9564192780001],[70.2460415130001,52.9563386720001],[70.246392853,52.956237726],[70.246833801,52.9560676610001],[70.2470709770001,52.9559270730001],[70.2455333230001,52.9552533230001],[70.2445768040001,52.956070647]]]],"type":"MultiPolygon"},"id":"10209244.","properties":{"_release_layer_kind":"allowed","_source_collection":"gpzone-jil","admterr_id/locality_admterr_id":"kz.11.70.20.100","admterr_id/locality_admterr_id/geometry":{"bbox":[70.0990001415679,52.8606953572399,70.3179749926171,53.0082769671341]},"admterr_id/locality_admterr_id/name":"г. Щучинск","admterr_id/locality_admterr_id/name_kk":"Щучинск қ.","admterr_id/locality_admterr_id/name_ru":"г. Щучинск","admterr_id/oblast_admterr_id":"kz.11","admterr_id/oblast_admterr_id/geometry":{"bbox":[65.3511897767069,50.0393502247237,74.2592871444736,53.6843580486921]},"admterr_id/oblast_admterr_id/name":"Акмолинская область","admterr_id/oblast_admterr_id/name_kk":"Ақмола облысы","admterr_id/oblast_admterr_id/name_ru":"Акмолинская область","admterr_id/rayon_admterr_id":"kz.11.70","admterr_id/rayon_admterr_id/geometry":{"bbox":[69.3005628783148,52.3987723271093,70.8892456332102,53.430480019049]},"admterr_id/rayon_admterr_id/name":"Бурабайский район","admterr_id/rayon_admterr_id/name_kk":"Бурабай ауданы","admterr_id/rayon_admterr_id/name_ru":"Бурабайский район","functional":"Усадебный застройка","gpsubtype_id":11010000,"id":"10209244.","implementation":"Проектируемые","name_usl":"Территория усадебной застройки","object_id_i32":211,"usl_i32":11010000},"type":"Feature"},{"collection":"gpzone","geometry":{"bbox":[70.239263484,52.953027461,70.2453639220001,52.95600969],"coordinates":[[[[70.2444256850001,52.95600969],[70.2453639220001,52.9551939090001],[70.240393952,52.953027461],[70.239263484,52.953928074],[70.2444256850001,52.95600969]]]],"type":"MultiPolygon"},"id":"10209245.","properties":{"_release_layer_kind":"allowed","_source_collection":"gpzone-jil","admterr_id/locality_admterr_id":"kz.11.70.20.100","admterr_id/locality_admterr_id/geometry":{"bbox":[70.0990001415679,52.8606953572399,70.3179749926171,53.0082769671341]},"admterr_id/locality_admterr_id/name":"г. Щучинск","admterr_id/locality_admterr_id/name_kk":"Щучинск қ.","admterr_id/locality_admterr_id/name_ru":"г. Щучинск","admterr_id/oblast_admterr_id":"kz.11","admterr_id/oblast_admterr_id/geometry":{"bbox":[65.3511897767069,50.0393502247237,74.2592871444736,53.6843580486921]},"admterr_id/oblast_admterr_id/name":"Акмолинская область","admterr_id/oblast_admterr_id/name_kk":"Ақмола облысы","admterr_id/oblast_admterr_id/name_ru":"Акмолинская область","admterr_id/rayon_admterr_id":"kz.11.70","admterr_id/rayon_admterr_id/geometry":{"bbox":[69.3005628783148,52.3987723271093,70.8892456332102,53.430480019049]},"admterr_id/rayon_admterr_id/name":"Бурабайский район","admterr_id/rayon_admterr_id/name_kk":"Бурабай ауданы","admterr_id/rayon_admterr_id/name_ru":"Бурабайский район","functional":"Усадебный застройка","gpsubtype_id":11010000,"id":"10209245.","implementation":"Проектируемые","name_usl":"Территория усадебной застройки","object_id_i32":212,"usl_i32":11010000},"type":"Feature"},{"collection":"gpzone","geometry":{"bbox":[70.2386979560001,52.95401887,70.245203716,52.9564872170001],"coordinates":[[[[70.2386979560001,52.9543756130001],[70.241391697,52.9555214210001],[70.2426447620001,52.956072039],[70.242980829,52.9561799420001],[70.243467379,52.95631609],[70.244050884,52.956425537],[70.2445534890001,52.956483969],[70.2450300460001,52.9564872170001],[70.245203716,52.9564727800001],[70.243157056,52.9556261430001],[70.239151775,52.95401887],[70.2386979560001,52.9543756130001]]]],"type":"MultiPolygon"},"id":"10209246.","properties":{"_release_layer_kind":"allowed","_source_collection":"gpzone-jil","admterr_id/locality_admterr_id":"kz.11.70.20.100","admterr_id/locality_admterr_id/geometry":{"bbox":[70.0990001415679,52.8606953572399,70.3179749926171,53.0082769671341]},"admterr_id/locality_admterr_id/name":"г. Щучинск","admterr_id/locality_admterr_id/name_kk":"Щучинск қ.","admterr_id/locality_admterr_id/name_ru":"г. Щучинск","admterr_id/oblast_admterr_id":"kz.11","admterr_id/oblast_admterr_id/geometry":{"bbox":[65.3511897767069,50.0393502247237,74.2592871444736,53.6843580486921]},"admterr_id/oblast_admterr_id/name":"Акмолинская область","admterr_id/oblast_admterr_id/name_kk":"Ақмола облысы","admterr_id/oblast_admterr_id/name_ru":"Акмолинская область","admterr_id/rayon_admterr_id":"kz.11.70","admterr_id/rayon_admterr_id/geometry":{"bbox":[69.3005628783148,52.3987723271093,70.8892456332102,53.430480019049]},"admterr_id/rayon_admterr_id/name":"Бурабайский район","admterr_id/rayon_admterr_id/name_kk":"Бурабай ауданы","admterr_id/rayon_admterr_id/name_ru":"Бурабайский район","functional":"Усадебный застройка","gpsubtype_id":11010000,"id":"10209246.","implementation":"Проектируемые","name_usl":"Территория усадебной застройки","object_id_i32":213,"usl_i32":11010000},"type":"Feature"},{"collection":"gpzone","geometry":{"bbox":[70.2498227080001,52.9493707920001,70.2508285320001,52.9507823850001],"coordinates":[[[[70.250770801,52.9507807160001],[70.2508087050001,52.950782303],[70.2508285320001,52.9493707920001],[70.2498227080001,52.949372141],[70.2498291460001,52.949731699],[70.2501643000001,52.9497219450001],[70.2502007260001,52.9507823850001],[70.250770801,52.9507807160001]]]],"type":"MultiPolygon"},"id":"10209247.","properties":{"_release_layer_kind":"allowed","_source_collection":"gpzone-jil","admterr_id/locality_admterr_id":"kz.11.70.20.100","admterr_id/locality_admterr_id/geometry":{"bbox":[70.0990001415679,52.8606953572399,70.3179749926171,53.0082769671341]},"admterr_id/locality_admterr_id/name":"г. Щучинск","admterr_id/locality_admterr_id/name_kk":"Щучинск қ.","admterr_id/locality_admterr_id/name_ru":"г. Щучинск","admterr_id/oblast_admterr_id":"kz.11","admterr_id/oblast_admterr_id/geometry":{"bbox":[65.3511897767069,50.0393502247237,74.2592871444736,53.6843580486921]},"admterr_id/oblast_admterr_id/name":"Акмолинская область","admterr_id/oblast_admterr_id/name_kk":"Ақмола облысы","admterr_id/oblast_admterr_id/name_ru":"Акмолинская область","admterr_id/rayon_admterr_id":"kz.11.70","admterr_id/rayon_admterr_id/geometry":{"bbox":[69.3005628783148,52.3987723271093,70.8892456332102,53.430480019049]},"admterr_id/rayon_admterr_id/name":"Бурабайский район","admterr_id/rayon_admterr_id/name_kk":"Бурабай ауданы","admterr_id/rayon_admterr_id/name_ru":"Бурабайский район","functional":"Усадебный застройка","gpsubtype_id":11010000,"id":"10209247.","implementation":"Проектируемые","name_usl":"Территория усадебной застройки","object_id_i32":214,"usl_i32":11010000},"type":"Feature"},{"collection":"gpzone","geometry":{"bbox":[70.248652602,52.9464837680001,70.2494166930001,52.9490759190001],"coordinates":[[[[70.2487383420001,52.9490759190001],[70.2494166930001,52.9490669080001],[70.2493413190001,52.9464837680001],[70.248652602,52.9464907920001],[70.2486927160001,52.9475867790001],[70.2487383420001,52.9490759190001]]]],"type":"MultiPolygon"},"id":"10209248.","properties":{"_release_layer_kind":"allowed","_source_collection":"gpzone-jil","admterr_id/locality_admterr_id":"kz.11.70.20.100","admterr_id/locality_admterr_id/geometry":{"bbox":[70.0990001415679,52.8606953572399,70.3179749926171,53.0082769671341]},"admterr_id/locality_admterr_id/name":"г. Щучинск","admterr_id/locality_admterr_id/name_kk":"Щучинск қ.","admterr_id/locality_admterr_id/name_ru":"г. Щучинск","admterr_id/oblast_admterr_id":"kz.11","admterr_id/oblast_admterr_id/geometry":{"bbox":[65.3511897767069,50.0393502247237,74.2592871444736,53.6843580486921]},"admterr_id/oblast_admterr_id/name":"Акмолинская область","admterr_id/oblast_admterr_id/name_kk":"Ақмола облысы","admterr_id/oblast_admterr_id/name_ru":"Акмолинская область","admterr_id/rayon_admterr_id":"kz.11.70","admterr_id/rayon_admterr_id/geometry":{"bbox":[69.3005628783148,52.3987723271093,70.8892456332102,53.430480019049]},"admterr_id/rayon_admterr_id/name":"Бурабайский район","admterr_id/rayon_admterr_id/name_kk":"Бурабай ауданы","admterr_id/rayon_admterr_id/name_ru":"Бурабайский район","functional":"Усадебный застройка","gpsubtype_id":11010000,"id":"10209248.","implementation":"Проектируемые","name_usl":"Территория усадебной застройки","object_id_i32":215,"usl_i32":11010000},"type":"Feature"},{"collection":"gpzone","geometry":{"bbox":[70.24952897,52.94638611,70.250828217,52.949277297],"coordinates":[[[[70.2508154760001,52.9492756760001],[70.250828217,52.949277297],[70.250826036,52.94638611],[70.249827558,52.94639011],[70.249720617,52.94639026],[70.249665474,52.946399313],[70.2496209120001,52.946417625],[70.249582837,52.9464374400001],[70.2495513380001,52.9464618760001],[70.24952897,52.9464901280001],[70.249542127,52.946935393],[70.2495622270001,52.947578988],[70.2495994860001,52.9490236010001],[70.249601657,52.9492301110001],[70.249626907,52.949256388],[70.249662302,52.9492771230001],[70.2508154760001,52.9492756760001]]]],"type":"MultiPolygon"},"id":"10209249.","properties":{"_release_layer_kind":"allowed","_source_collection":"gpzone-jil","admterr_id/locality_admterr_id":"kz.11.70.20.100","admterr_id/locality_admterr_id/geometry":{"bbox":[70.0990001415679,52.8606953572399,70.3179749926171,53.0082769671341]},"admterr_id/locality_admterr_id/name":"г. Щучинск","admterr_id/locality_admterr_id/name_kk":"Щучинск қ.","admterr_id/locality_admterr_id/name_ru":"г. Щучинск","admterr_id/oblast_admterr_id":"kz.11","admterr_id/oblast_admterr_id/geometry":{"bbox":[65.3511897767069,50.0393502247237,74.2592871444736,53.6843580486921]},"admterr_id/oblast_admterr_id/name":"Акмолинская область","admterr_id/oblast_admterr_id/name_kk":"Ақмола облысы","admterr_id/oblast_admterr_id/name_ru":"Акмолинская область","admterr_id/rayon_admterr_id":"kz.11.70","admterr_id/rayon_admterr_id/geometry":{"bbox":[69.3005628783148,52.3987723271093,70.8892456332102,53.430480019049]},"admterr_id/rayon_admterr_id/name":"Бурабайский район","admterr_id/rayon_admterr_id/name_kk":"Бурабай ауданы","admterr_id/rayon_admterr_id/name_ru":"Бурабайский район","functional":"Усадебный застройка","gpsubtype_id":11010000,"id":"10209249.","implementation":"Проектируемые","name_usl":"Территория усадебной застройки","object_id_i32":216,"usl_i32":11010000},"type":"Feature"},{"collection":"gpzone","geometry":{"bbox":[70.2510218680001,52.9463531150001,70.256211545,52.9471368550001],"coordinates":[[[[70.251041521,52.9471368550001],[70.2512993110001,52.9471326400001],[70.25336715,52.9471105150001],[70.256211545,52.947088916],[70.256186986,52.9463531150001],[70.2510218680001,52.946386041],[70.251041521,52.9471368550001]]]],"type":"MultiPolygon"},"id":"10209250.","properties":{"_release_layer_kind":"allowed","_source_collection":"gpzone-jil","admterr_id/locality_admterr_id":"kz.11.70.20.100","admterr_id/locality_admterr_id/geometry":{"bbox":[70.0990001415679,52.8606953572399,70.3179749926171,53.0082769671341]},"admterr_id/locality_admterr_id/name":"г. Щучинск","admterr_id/locality_admterr_id/name_kk":"Щучинск қ.","admterr_id/locality_admterr_id/name_ru":"г. Щучинск","admterr_id/oblast_admterr_id":"kz.11","admterr_id/oblast_admterr_id/geometry":{"bbox":[65.3511897767069,50.0393502247237,74.2592871444736,53.6843580486921]},"admterr_id/oblast_admterr_id/name":"Акмолинская область","admterr_id/oblast_admterr_id/name_kk":"Ақмола облысы","admterr_id/oblast_admterr_id/name_ru":"Акмолинская область","admterr_id/rayon_admterr_id":"kz.11.70","admterr_id/rayon_admterr_id/geometry":{"bbox":[69.3005628783148,52.3987723271093,70.8892456332102,53.430480019049]},"admterr_id/rayon_admterr_id/name":"Бурабайский район","admterr_id/rayon_admterr_id/name_kk":"Бурабай ауданы","admterr_id/rayon_admterr_id/name_ru":"Бурабайский район","functional":"Усадебный застройка","gpsubtype_id":11010000,"id":"10209250.","implementation":"Проектируемые","name_usl":"Территория усадебной застройки","object_id_i32":217,"usl_i32":11010000},"type":"Feature"},{"collection":"gpzone","geometry":{"bbox":[70.2517195950001,52.9471787520001,70.2576503550001,52.947602794],"coordinates":[[[[70.2517195950001,52.9472330420001],[70.251741855,52.947602794],[70.2546136810001,52.947579225],[70.2576503550001,52.9475528390001],[70.257648584,52.9471787520001],[70.2517195950001,52.9472330420001]]]],"type":"MultiPolygon"},"id":"10209251.","properties":{"_release_layer_kind":"allowed","_source_collection":"gpzone-jil","admterr_id/locality_admterr_id":"kz.11.70.20.100","admterr_id/locality_admterr_id/geometry":{"bbox":[70.0990001415679,52.8606953572399,70.3179749926171,53.0082769671341]},"admterr_id/locality_admterr_id/name":"г. Щучинск","admterr_id/locality_admterr_id/name_kk":"Щучинск қ.","admterr_id/locality_admterr_id/name_ru":"г. Щучинск","admterr_id/oblast_admterr_id":"kz.11","admterr_id/oblast_admterr_id/geometry":{"bbox":[65.3511897767069,50.0393502247237,74.2592871444736,53.6843580486921]},"admterr_id/oblast_admterr_id/name":"Акмолинская область","admterr_id/oblast_admterr_id/name_kk":"Ақмола облысы","admterr_id/oblast_admterr_id/name_ru":"Акмолинская область","admterr_id/rayon_admterr_id":"kz.11.70","admterr_id/rayon_admterr_id/geometry":{"bbox":[69.3005628783148,52.3987723271093,70.8892456332102,53.430480019049]},"admterr_id/rayon_admterr_id/name":"Бурабайский район","admterr_id/rayon_admterr_id/name_kk":"Бурабай ауданы","admterr_id/rayon_admterr_id/name_ru":"Бурабайский район","functional":"Усадебный застройка","gpsubtype_id":11010000,"id":"10209251.","implementation":"Проектируемые","name_usl":"Территория усадебной застройки","object_id_i32":218,"usl_i32":11010000},"type":"Feature"},{"collection":"gpzone","geometry":{"bbox":[70.2567488060001,52.9528887710001,70.2599578150001,52.9556665430001],"coordinates":[[[[70.2567488060001,52.9531667420001],[70.2569900600001,52.9545471280001],[70.257254845,52.954689312],[70.25744954,52.9548485230001],[70.2576671030001,52.95504694],[70.257806842,52.9551836410001],[70.25800687,52.955339522],[70.258140703,52.955459854],[70.2583003330001,52.9555339930001],[70.258432821,52.955608366],[70.2585858720001,52.9556431560001],[70.258727681,52.955664911],[70.258917771,52.9556665430001],[70.2599578150001,52.9555819820001],[70.259886873,52.9551984070001],[70.2597786060001,52.95483814],[70.2596770150001,52.9545205000001],[70.2595011540001,52.9542626100001],[70.2592982450001,52.954008237],[70.2590456200001,52.953724741],[70.258848044,52.9534670370001],[70.25859417,52.953140858],[70.2585053550001,52.9528887710001],[70.2576243660001,52.9530277800001],[70.257868704,52.9541421580001],[70.2576626160001,52.954150516],[70.2574461900001,52.953062168],[70.2567488060001,52.9531667420001]]]],"type":"MultiPolygon"},"id":"10209252.","properties":{"_release_layer_kind":"allowed","_source_collection":"gpzone-jil","admterr_id/locality_admterr_id":"kz.11.70.20.100","admterr_id/locality_admterr_id/geometry":{"bbox":[70.0990001415679,52.8606953572399,70.3179749926171,53.0082769671341]},"admterr_id/locality_admterr_id/name":"г. Щучинск","admterr_id/locality_admterr_id/name_kk":"Щучинск қ.","admterr_id/locality_admterr_id/name_ru":"г. Щучинск","admterr_id/oblast_admterr_id":"kz.11","admterr_id/oblast_admterr_id/geometry":{"bbox":[65.3511897767069,50.0393502247237,74.2592871444736,53.6843580486921]},"admterr_id/oblast_admterr_id/name":"Акмолинская область","admterr_id/oblast_admterr_id/name_kk":"Ақмола облысы","admterr_id/oblast_admterr_id/name_ru":"Акмолинская область","admterr_id/rayon_admterr_id":"kz.11.70","admterr_id/rayon_admterr_id/geometry":{"bbox":[69.3005628783148,52.3987723271093,70.8892456332102,53.430480019049]},"admterr_id/rayon_admterr_id/name":"Бурабайский район","admterr_id/rayon_admterr_id/name_kk":"Бурабай ауданы","admterr_id/rayon_admterr_id/name_ru":"Бурабайский район","functional":"Усадебный застройка","gpsubtype_id":11010000,"id":"10209252.","implementation":"Проектируемые","name_usl":"Территория усадебной застройки","object_id_i32":219,"usl_i32":11010000},"type":"Feature"}],"type":"FeatureCollection"}