{"crs":{"properties":{"name":"urn:ogc:def:crs:OGC:1.3:CRS84"},"type":"name"},"features":[{"collection":"gpreg","geometry":{"bbox":[69.3088855390001,53.2382932680001,69.3293422150001,53.2508211700001],"coordinates":[[[69.3088855390001,53.2382932680001],[69.3139843660001,53.2417216540001],[69.3293422150001,53.2508211700001]]],"type":"MultiLineString"},"id":"14937601.","properties":{"_release_layer_kind":"red_line","_source_collection":"gpreg-redline","admterr_id/locality_admterr_id":"kz.11.10.10","admterr_id/locality_admterr_id/geometry":{"bbox":[68.9938661312108,53.2085014360382,69.5450088057591,53.4055383209313]},"admterr_id/locality_admterr_id/name":"г.Кокшетау","admterr_id/locality_admterr_id/name_kk":"Көкшетау қ.","admterr_id/locality_admterr_id/name_ru":"г.Кокшетау","admterr_id/oblast_admterr_id":"kz.11","admterr_id/oblast_admterr_id/geometry":{"bbox":[65.3511897767069,50.0393502247237,74.2592871444736,53.6843580486921]},"admterr_id/oblast_admterr_id/name":"Акмолинская область","admterr_id/oblast_admterr_id/name_kk":"Ақмола облысы","admterr_id/oblast_admterr_id/name_ru":"Акмолинская область","admterr_id/rayon_admterr_id":"kz.11.10","admterr_id/rayon_admterr_id/geometry":{"bbox":[68.9938661312108,53.2085014360382,69.5450088057591,53.4055383209313]},"admterr_id/rayon_admterr_id/name":"Кокшетау Г.А.","admterr_id/rayon_admterr_id/name_kk":"Көкшетау Қ.Ә.","admterr_id/rayon_admterr_id/name_ru":"Кокшетау Г.А.","approved_date":"2008-10-24T00:00:00+00:00","id":"14937601.","name_usl":"Красные линии","number_post":" №986","object_id_i32":1,"usl_i32":55010000},"type":"Feature"},{"collection":"gpreg","geometry":{"bbox":[69.30826003,53.238678862,69.333497316,53.2737042890001],"coordinates":[[[69.30826003,53.238678862],[69.3133588570001,53.2421072160001],[69.328715996,53.2512062340001],[69.3287167060001,53.2512066510001],[69.3331444440001,53.2537994200001],[69.3332637180001,53.2544043500001],[69.333497316,53.2577163980001],[69.328300095,53.2611597700001],[69.328270698,53.2611814800001],[69.3272967490001,53.2619827120001],[69.327258251,53.2620206140001],[69.3189270600001,53.271995443],[69.317160292,53.2737042890001]]],"type":"MultiLineString"},"id":"14937602.","properties":{"_release_layer_kind":"red_line","_source_collection":"gpreg-redline","admterr_id/locality_admterr_id":"kz.11.10.10","admterr_id/locality_admterr_id/geometry":{"bbox":[68.9938661312108,53.2085014360382,69.5450088057591,53.4055383209313]},"admterr_id/locality_admterr_id/name":"г.Кокшетау","admterr_id/locality_admterr_id/name_kk":"Көкшетау қ.","admterr_id/locality_admterr_id/name_ru":"г.Кокшетау","admterr_id/oblast_admterr_id":"kz.11","admterr_id/oblast_admterr_id/geometry":{"bbox":[65.3511897767069,50.0393502247237,74.2592871444736,53.6843580486921]},"admterr_id/oblast_admterr_id/name":"Акмолинская область","admterr_id/oblast_admterr_id/name_kk":"Ақмола облысы","admterr_id/oblast_admterr_id/name_ru":"Акмолинская область","admterr_id/rayon_admterr_id":"kz.11.10","admterr_id/rayon_admterr_id/geometry":{"bbox":[68.9938661312108,53.2085014360382,69.5450088057591,53.4055383209313]},"admterr_id/rayon_admterr_id/name":"Кокшетау Г.А.","admterr_id/rayon_admterr_id/name_kk":"Көкшетау Қ.Ә.","admterr_id/rayon_admterr_id/name_ru":"Кокшетау Г.А.","approved_date":"2008-10-24T00:00:00+00:00","id":"14937602.","name_usl":"Красные линии","number_post":" №986","object_id_i32":1,"usl_i32":55010000},"type":"Feature"},{"collection":"gpreg","geometry":{"bbox":[69.4220263600001,53.247427074,69.5168993090001,53.26380777],"coordinates":[[[69.5168993090001,53.247427074],[69.510261373,53.24911453],[69.5003786670001,53.251616632],[69.4963517400001,53.252480593],[69.4929639430001,53.253246989],[69.490246809,53.2540031240001],[69.480282039,53.2568552640001],[69.4709916950001,53.25950156],[69.4684880280001,53.260185],[69.4632909850001,53.2616454830001],[69.4553599280001,53.26380777],[69.4534240310001,53.2624147760001],[69.4517733850001,53.2613751060001],[69.4499754770001,53.2603616820001],[69.4490225420001,53.259900208],[69.4482298090001,53.2596622990001],[69.4471883570001,53.2593975200001],[69.446560219,53.2592522150001],[69.4459667510001,53.2591105830001],[69.4438949730001,53.258630758],[69.441672628,53.258187182],[69.4391857690001,53.25790792],[69.4355178970001,53.257598498],[69.4326887780001,53.2573246420001],[69.4220263600001,53.2564464710001],[69.4222794010001,53.255562307]]],"type":"MultiLineString"},"id":"14937603.","properties":{"_release_layer_kind":"red_line","_source_collection":"gpreg-redline","admterr_id/locality_admterr_id":"kz.11.10.10","admterr_id/locality_admterr_id/geometry":{"bbox":[68.9938661312108,53.2085014360382,69.5450088057591,53.4055383209313]},"admterr_id/locality_admterr_id/name":"г.Кокшетау","admterr_id/locality_admterr_id/name_kk":"Көкшетау қ.","admterr_id/locality_admterr_id/name_ru":"г.Кокшетау","admterr_id/oblast_admterr_id":"kz.11","admterr_id/oblast_admterr_id/geometry":{"bbox":[65.3511897767069,50.0393502247237,74.2592871444736,53.6843580486921]},"admterr_id/oblast_admterr_id/name":"Акмолинская область","admterr_id/oblast_admterr_id/name_kk":"Ақмола облысы","admterr_id/oblast_admterr_id/name_ru":"Акмолинская область","admterr_id/rayon_admterr_id":"kz.11.10","admterr_id/rayon_admterr_id/geometry":{"bbox":[68.9938661312108,53.2085014360382,69.5450088057591,53.4055383209313]},"admterr_id/rayon_admterr_id/name":"Кокшетау Г.А.","admterr_id/rayon_admterr_id/name_kk":"Көкшетау Қ.Ә.","admterr_id/rayon_admterr_id/name_ru":"Кокшетау Г.А.","approved_date":"2008-10-24T00:00:00+00:00","id":"14937603.","name_usl":"Красные линии","number_post":" №986","object_id_i32":1,"usl_i32":55010000},"type":"Feature"},{"collection":"gpreg","geometry":{"bbox":[69.4557370190001,53.248081416,69.5173953650001,53.297442571],"coordinates":[[[69.5173953650001,53.248081416],[69.5107574290001,53.2497688460001],[69.500874722,53.25227091],[69.4968477960001,53.253134856],[69.493459998,53.2539012410001],[69.4907428650001,53.2546573640001],[69.4807780940001,53.257509461],[69.4714877500001,53.260155717],[69.4689840830001,53.2608391460001],[69.463787036,53.2622996000001],[69.4557370190001,53.264494282],[69.4603105210001,53.270157569],[69.460477709,53.270358532],[69.4605278650001,53.2704188210001],[69.4606439510001,53.270559792],[69.4639755530001,53.2757734470001],[69.4645480183221,53.2772506889231],[69.4650137005514,53.2787649875399],[69.4653702293435,53.2803086349941],[69.4656157899444,53.2818737740399],[69.4657491324433,53.2834524380378],[69.465769578117,53.2850365915092],[69.4656770228971,53.286618171026],[69.4654719378936,53.2881891262712],[69.4651553670001,53.2897414610001],[69.4650756580504,53.2901503932825],[69.4649705456832,53.2905535440195],[69.4648404409308,53.2909493367424],[69.4646858525411,53.2913362237523],[69.4645073850224,53.2917126921711],[69.4643057362446,53.2920772698708],[69.4640816947322,53.2924285312101],[69.4638361365778,53.2927651026275],[69.4635700220001,53.2930856680001],[69.4632133025736,53.2936257889106],[69.4628234759544,53.2941425234157],[69.4624020708179,53.2946338451638],[69.4619507396965,53.2950978274512],[69.4614712524635,53.2955326507927],[69.4609654894084,53.2959366100476],[69.4604354338662,53.2963081211037],[69.4598831644216,53.2966457270959],[69.4593108467775,53.2969481041154],[69.4587207252554,53.2972140664025],[69.4581151140001,53.297442571]]],"type":"MultiLineString"},"id":"14937604.","properties":{"_release_layer_kind":"red_line","_source_collection":"gpreg-redline","admterr_id/locality_admterr_id":"kz.11.10.10","admterr_id/locality_admterr_id/geometry":{"bbox":[68.9938661312108,53.2085014360382,69.5450088057591,53.4055383209313]},"admterr_id/locality_admterr_id/name":"г.Кокшетау","admterr_id/locality_admterr_id/name_kk":"Көкшетау қ.","admterr_id/locality_admterr_id/name_ru":"г.Кокшетау","admterr_id/oblast_admterr_id":"kz.11","admterr_id/oblast_admterr_id/geometry":{"bbox":[65.3511897767069,50.0393502247237,74.2592871444736,53.6843580486921]},"admterr_id/oblast_admterr_id/name":"Акмолинская область","admterr_id/oblast_admterr_id/name_kk":"Ақмола облысы","admterr_id/oblast_admterr_id/name_ru":"Акмолинская область","admterr_id/rayon_admterr_id":"kz.11.10","admterr_id/rayon_admterr_id/geometry":{"bbox":[68.9938661312108,53.2085014360382,69.5450088057591,53.4055383209313]},"admterr_id/rayon_admterr_id/name":"Кокшетау Г.А.","admterr_id/rayon_admterr_id/name_kk":"Көкшетау Қ.Ә.","admterr_id/rayon_admterr_id/name_ru":"Кокшетау Г.А.","approved_date":"2008-10-24T00:00:00+00:00","id":"14937604.","name_usl":"Красные линии","number_post":" №986","object_id_i32":1,"usl_i32":55010000},"type":"Feature"},{"collection":"gpreg","geometry":{"bbox":[69.3293447550001,53.2508226750001,69.340299401,53.2535691470001],"coordinates":[[[69.3293447550001,53.2508226750001],[69.333884959,53.253490797],[69.3350068070001,53.2535691470001],[69.3386450770001,53.2535589490001],[69.3393053250001,53.253531444],[69.340299401,53.2533438410001]]],"type":"MultiLineString"},"id":"14937605.","properties":{"_release_layer_kind":"red_line","_source_collection":"gpreg-redline","admterr_id/locality_admterr_id":"kz.11.10.10","admterr_id/locality_admterr_id/geometry":{"bbox":[68.9938661312108,53.2085014360382,69.5450088057591,53.4055383209313]},"admterr_id/locality_admterr_id/name":"г.Кокшетау","admterr_id/locality_admterr_id/name_kk":"Көкшетау қ.","admterr_id/locality_admterr_id/name_ru":"г.Кокшетау","admterr_id/oblast_admterr_id":"kz.11","admterr_id/oblast_admterr_id/geometry":{"bbox":[65.3511897767069,50.0393502247237,74.2592871444736,53.6843580486921]},"admterr_id/oblast_admterr_id/name":"Акмолинская область","admterr_id/oblast_admterr_id/name_kk":"Ақмола облысы","admterr_id/oblast_admterr_id/name_ru":"Акмолинская область","admterr_id/rayon_admterr_id":"kz.11.10","admterr_id/rayon_admterr_id/geometry":{"bbox":[68.9938661312108,53.2085014360382,69.5450088057591,53.4055383209313]},"admterr_id/rayon_admterr_id/name":"Кокшетау Г.А.","admterr_id/rayon_admterr_id/name_kk":"Көкшетау Қ.Ә.","admterr_id/rayon_admterr_id/name_ru":"Кокшетау Г.А.","approved_date":"2008-10-24T00:00:00+00:00","id":"14937605.","name_usl":"Красные линии","number_post":" №986","object_id_i32":1,"usl_i32":55010000},"type":"Feature"},{"collection":"gpreg","geometry":{"bbox":[69.3564403190001,53.2511508254566,69.360610852,53.25404703],"coordinates":[[[69.360610852,53.2515135830001],[69.3585875650001,53.2511766100001],[69.3584574099776,53.2511591489749],[69.3583263529801,53.2511508254566],[69.3581950347179,53.2511516801333],[69.3580640971668,53.2511617088276],[69.357934180447,53.2511808625113],[69.3578059196952,53.2512090475466],[69.3576799419388,53.2512461261449],[69.3575568630549,53.2512919170367],[69.357437284747,53.2513461963645],[69.3573217916018,53.2514086987685],[69.3572109482303,53.2514791186887],[69.3571052965316,53.2515571118622],[69.357005353,53.251642297],[69.3564403190001,53.252163921],[69.3565194450001,53.252220525],[69.358093953,53.253415671],[69.3589284590001,53.25404703],[69.359154673,53.25394061],[69.3593169640001,53.253868072],[69.3594654520001,53.2538050920001],[69.3596927510001,53.2537550580001],[69.359835978,53.253736152],[69.3598972950001,53.2537285870001],[69.359970456,53.253723542],[69.360610852,53.2515135830001]]],"type":"MultiLineString"},"id":"14937606.","properties":{"_release_layer_kind":"red_line","_source_collection":"gpreg-redline","admterr_id/locality_admterr_id":"kz.11.10.10","admterr_id/locality_admterr_id/geometry":{"bbox":[68.9938661312108,53.2085014360382,69.5450088057591,53.4055383209313]},"admterr_id/locality_admterr_id/name":"г.Кокшетау","admterr_id/locality_admterr_id/name_kk":"Көкшетау қ.","admterr_id/locality_admterr_id/name_ru":"г.Кокшетау","admterr_id/oblast_admterr_id":"kz.11","admterr_id/oblast_admterr_id/geometry":{"bbox":[65.3511897767069,50.0393502247237,74.2592871444736,53.6843580486921]},"admterr_id/oblast_admterr_id/name":"Акмолинская область","admterr_id/oblast_admterr_id/name_kk":"Ақмола облысы","admterr_id/oblast_admterr_id/name_ru":"Акмолинская область","admterr_id/rayon_admterr_id":"kz.11.10","admterr_id/rayon_admterr_id/geometry":{"bbox":[68.9938661312108,53.2085014360382,69.5450088057591,53.4055383209313]},"admterr_id/rayon_admterr_id/name":"Кокшетау Г.А.","admterr_id/rayon_admterr_id/name_kk":"Көкшетау Қ.Ә.","admterr_id/rayon_admterr_id/name_ru":"Кокшетау Г.А.","approved_date":"2008-10-24T00:00:00+00:00","id":"14937606.","name_usl":"Красные линии","number_post":" №986","object_id_i32":1,"usl_i32":55010000},"type":"Feature"},{"collection":"gpreg","geometry":{"bbox":[69.3603568250001,53.251575502,69.364289607,53.2540487300001],"coordinates":[[[69.36098745,53.251575502],[69.364289607,53.2521265230001],[69.36373395,53.2540487300001],[69.3625382970001,53.253945469],[69.3603568250001,53.253757067],[69.36098745,53.251575502]]],"type":"MultiLineString"},"id":"14937607.","properties":{"_release_layer_kind":"red_line","_source_collection":"gpreg-redline","admterr_id/locality_admterr_id":"kz.11.10.10","admterr_id/locality_admterr_id/geometry":{"bbox":[68.9938661312108,53.2085014360382,69.5450088057591,53.4055383209313]},"admterr_id/locality_admterr_id/name":"г.Кокшетау","admterr_id/locality_admterr_id/name_kk":"Көкшетау қ.","admterr_id/locality_admterr_id/name_ru":"г.Кокшетау","admterr_id/oblast_admterr_id":"kz.11","admterr_id/oblast_admterr_id/geometry":{"bbox":[65.3511897767069,50.0393502247237,74.2592871444736,53.6843580486921]},"admterr_id/oblast_admterr_id/name":"Акмолинская область","admterr_id/oblast_admterr_id/name_kk":"Ақмола облысы","admterr_id/oblast_admterr_id/name_ru":"Акмолинская область","admterr_id/rayon_admterr_id":"kz.11.10","admterr_id/rayon_admterr_id/geometry":{"bbox":[68.9938661312108,53.2085014360382,69.5450088057591,53.4055383209313]},"admterr_id/rayon_admterr_id/name":"Кокшетау Г.А.","admterr_id/rayon_admterr_id/name_kk":"Көкшетау Қ.Ә.","admterr_id/rayon_admterr_id/name_ru":"Кокшетау Г.А.","approved_date":"2008-10-24T00:00:00+00:00","id":"14937607.","name_usl":"Красные линии","number_post":" №986","object_id_i32":1,"usl_i32":55010000},"type":"Feature"},{"collection":"gpreg","geometry":{"bbox":[69.3641202530001,53.252188764,69.3683574930001,53.254410826],"coordinates":[[[69.364666318,53.252188764],[69.3683574930001,53.252804186],[69.367891211,53.254410826],[69.3641202530001,53.2540824810001],[69.364666318,53.252188764]]],"type":"MultiLineString"},"id":"14937608.","properties":{"_release_layer_kind":"red_line","_source_collection":"gpreg-redline","admterr_id/locality_admterr_id":"kz.11.10.10","admterr_id/locality_admterr_id/geometry":{"bbox":[68.9938661312108,53.2085014360382,69.5450088057591,53.4055383209313]},"admterr_id/locality_admterr_id/name":"г.Кокшетау","admterr_id/locality_admterr_id/name_kk":"Көкшетау қ.","admterr_id/locality_admterr_id/name_ru":"г.Кокшетау","admterr_id/oblast_admterr_id":"kz.11","admterr_id/oblast_admterr_id/geometry":{"bbox":[65.3511897767069,50.0393502247237,74.2592871444736,53.6843580486921]},"admterr_id/oblast_admterr_id/name":"Акмолинская область","admterr_id/oblast_admterr_id/name_kk":"Ақмола облысы","admterr_id/oblast_admterr_id/name_ru":"Акмолинская область","admterr_id/rayon_admterr_id":"kz.11.10","admterr_id/rayon_admterr_id/geometry":{"bbox":[68.9938661312108,53.2085014360382,69.5450088057591,53.4055383209313]},"admterr_id/rayon_admterr_id/name":"Кокшетау Г.А.","admterr_id/rayon_admterr_id/name_kk":"Көкшетау Қ.Ә.","admterr_id/rayon_admterr_id/name_ru":"Кокшетау Г.А.","approved_date":"2008-10-24T00:00:00+00:00","id":"14937608.","name_usl":"Красные линии","number_post":" №986","object_id_i32":1,"usl_i32":55010000},"type":"Feature"},{"collection":"gpreg","geometry":{"bbox":[69.372109745,53.25281568,69.384304838,53.2563146160001],"coordinates":[[[69.372160868,53.25281568],[69.372109745,53.2531517890001],[69.3740896410001,53.253481482],[69.37432175,53.2535249700001],[69.3745738050001,53.2535847990001],[69.3746610038193,53.2536064177307],[69.3747475654569,53.2536304611485],[69.3748334225129,53.2536569105305],[69.3749185081215,53.2536857452778],[69.3750027560242,53.2537169429388],[69.375086100617,53.2537504792177],[69.375168477,53.253786328],[69.377895994,53.255583437],[69.3789233360001,53.2563146160001],[69.38134267,53.2551957220001],[69.384304838,53.253828593],[69.372160868,53.25281568]]],"type":"MultiLineString"},"id":"14937609.","properties":{"_release_layer_kind":"red_line","_source_collection":"gpreg-redline","admterr_id/locality_admterr_id":"kz.11.10.10","admterr_id/locality_admterr_id/geometry":{"bbox":[68.9938661312108,53.2085014360382,69.5450088057591,53.4055383209313]},"admterr_id/locality_admterr_id/name":"г.Кокшетау","admterr_id/locality_admterr_id/name_kk":"Көкшетау қ.","admterr_id/locality_admterr_id/name_ru":"г.Кокшетау","admterr_id/oblast_admterr_id":"kz.11","admterr_id/oblast_admterr_id/geometry":{"bbox":[65.3511897767069,50.0393502247237,74.2592871444736,53.6843580486921]},"admterr_id/oblast_admterr_id/name":"Акмолинская область","admterr_id/oblast_admterr_id/name_kk":"Ақмола облысы","admterr_id/oblast_admterr_id/name_ru":"Акмолинская область","admterr_id/rayon_admterr_id":"kz.11.10","admterr_id/rayon_admterr_id/geometry":{"bbox":[68.9938661312108,53.2085014360382,69.5450088057591,53.4055383209313]},"admterr_id/rayon_admterr_id/name":"Кокшетау Г.А.","admterr_id/rayon_admterr_id/name_kk":"Көкшетау Қ.Ә.","admterr_id/rayon_admterr_id/name_ru":"Кокшетау Г.А.","approved_date":"2008-10-24T00:00:00+00:00","id":"14937609.","name_usl":"Красные линии","number_post":" №986","object_id_i32":1,"usl_i32":55010000},"type":"Feature"},{"collection":"gpreg","geometry":{"bbox":[69.3682606780001,53.2528645410001,69.3716312810001,53.2547092730001],"coordinates":[[[69.3687197960001,53.2528645410001],[69.3716312810001,53.2533495530001],[69.371552589,53.253867273],[69.3713307530001,53.2547092730001],[69.3682606780001,53.2544416870001],[69.3686997400001,53.25293344],[69.3687197960001,53.2528645410001]]],"type":"MultiLineString"},"id":"14937610.","properties":{"_release_layer_kind":"red_line","_source_collection":"gpreg-redline","admterr_id/locality_admterr_id":"kz.11.10.10","admterr_id/locality_admterr_id/geometry":{"bbox":[68.9938661312108,53.2085014360382,69.5450088057591,53.4055383209313]},"admterr_id/locality_admterr_id/name":"г.Кокшетау","admterr_id/locality_admterr_id/name_kk":"Көкшетау қ.","admterr_id/locality_admterr_id/name_ru":"г.Кокшетау","admterr_id/oblast_admterr_id":"kz.11","admterr_id/oblast_admterr_id/geometry":{"bbox":[65.3511897767069,50.0393502247237,74.2592871444736,53.6843580486921]},"admterr_id/oblast_admterr_id/name":"Акмолинская область","admterr_id/oblast_admterr_id/name_kk":"Ақмола облысы","admterr_id/oblast_admterr_id/name_ru":"Акмолинская область","admterr_id/rayon_admterr_id":"kz.11.10","admterr_id/rayon_admterr_id/geometry":{"bbox":[68.9938661312108,53.2085014360382,69.5450088057591,53.4055383209313]},"admterr_id/rayon_admterr_id/name":"Кокшетау Г.А.","admterr_id/rayon_admterr_id/name_kk":"Көкшетау Қ.Ә.","admterr_id/rayon_admterr_id/name_ru":"Кокшетау Г.А.","approved_date":"2008-10-24T00:00:00+00:00","id":"14937610.","name_usl":"Красные линии","number_post":" №986","object_id_i32":1,"usl_i32":55010000},"type":"Feature"},{"collection":"gpreg","geometry":{"bbox":[69.340299401,53.2533438350001,69.3402994350001,53.2533438410001],"coordinates":[[[69.340299401,53.2533438410001],[69.3402994350001,53.2533438350001]]],"type":"MultiLineString"},"id":"14937611.","properties":{"_release_layer_kind":"red_line","_source_collection":"gpreg-redline","admterr_id/locality_admterr_id":"kz.11.10.10","admterr_id/locality_admterr_id/geometry":{"bbox":[68.9938661312108,53.2085014360382,69.5450088057591,53.4055383209313]},"admterr_id/locality_admterr_id/name":"г.Кокшетау","admterr_id/locality_admterr_id/name_kk":"Көкшетау қ.","admterr_id/locality_admterr_id/name_ru":"г.Кокшетау","admterr_id/oblast_admterr_id":"kz.11","admterr_id/oblast_admterr_id/geometry":{"bbox":[65.3511897767069,50.0393502247237,74.2592871444736,53.6843580486921]},"admterr_id/oblast_admterr_id/name":"Акмолинская область","admterr_id/oblast_admterr_id/name_kk":"Ақмола облысы","admterr_id/oblast_admterr_id/name_ru":"Акмолинская область","admterr_id/rayon_admterr_id":"kz.11.10","admterr_id/rayon_admterr_id/geometry":{"bbox":[68.9938661312108,53.2085014360382,69.5450088057591,53.4055383209313]},"admterr_id/rayon_admterr_id/name":"Кокшетау Г.А.","admterr_id/rayon_admterr_id/name_kk":"Көкшетау Қ.Ә.","admterr_id/rayon_admterr_id/name_ru":"Кокшетау Г.А.","approved_date":"2008-10-24T00:00:00+00:00","id":"14937611.","name_usl":"Красные линии","number_post":" №986","object_id_i32":1,"usl_i32":55010000},"type":"Feature"},{"collection":"gpreg","geometry":{"bbox":[69.340299401,53.249429353,69.421685558,53.25639756],"coordinates":[[[69.340299401,53.2533438410001],[69.341230253,53.2527655710001],[69.341677836,53.252497297],[69.3422263730001,53.25216851],[69.3430686030001,53.2517422980001],[69.343516569,53.251515603],[69.343827902,53.2513519090001],[69.344297022,53.2511261590001],[69.3447960930001,53.250927974],[69.3453183070001,53.2507638760001],[69.345867823,53.2506149120001],[69.347613478,53.2502149790001],[69.3501052560001,53.249705686],[69.3506814780001,53.2496085290001],[69.3512506050001,53.249515908],[69.3518300280001,53.2494566280001],[69.3524193310001,53.24943546],[69.353018434,53.249429353],[69.3536138050001,53.2494515650001],[69.354177597,53.249503229],[69.3547668580001,53.2495549830001],[69.3553266010001,53.2495995990001],[69.355917435,53.2496582430001],[69.3560677770001,53.249673633],[69.357138536,53.2497980700001],[69.357732884,53.249893236],[69.3582732020001,53.2500026490001],[69.361149444,53.25059765],[69.3648043970001,53.251269436],[69.3688427320001,53.2518721710001],[69.3721122590001,53.252271062],[69.3802740310001,53.252954382],[69.3851772420001,53.253359591],[69.3877893960001,53.2535708070001],[69.3893352800001,53.2537504050001],[69.3906060090001,53.2539260730001],[69.391743363,53.2540862480001],[69.392937282,53.254229981],[69.3935291610001,53.254289209],[69.3941261260001,53.2543440960001],[69.394735816,53.2544242500001],[69.395287846,53.2545096480001],[69.3958658590001,53.2546419870001],[69.3964285390001,53.2547471300001],[69.397031138,53.254819899],[69.397180587,53.254828359],[69.399196589,53.2549397240001],[69.4058727830001,53.2551016620001],[69.4091852190001,53.25537131],[69.4214325190001,53.25639756],[69.421685558,53.255513396]]],"type":"MultiLineString"},"id":"14937612.","properties":{"_release_layer_kind":"red_line","_source_collection":"gpreg-redline","admterr_id/locality_admterr_id":"kz.11.10.10","admterr_id/locality_admterr_id/geometry":{"bbox":[68.9938661312108,53.2085014360382,69.5450088057591,53.4055383209313]},"admterr_id/locality_admterr_id/name":"г.Кокшетау","admterr_id/locality_admterr_id/name_kk":"Көкшетау қ.","admterr_id/locality_admterr_id/name_ru":"г.Кокшетау","admterr_id/oblast_admterr_id":"kz.11","admterr_id/oblast_admterr_id/geometry":{"bbox":[65.3511897767069,50.0393502247237,74.2592871444736,53.6843580486921]},"admterr_id/oblast_admterr_id/name":"Акмолинская область","admterr_id/oblast_admterr_id/name_kk":"Ақмола облысы","admterr_id/oblast_admterr_id/name_ru":"Акмолинская область","admterr_id/rayon_admterr_id":"kz.11.10","admterr_id/rayon_admterr_id/geometry":{"bbox":[68.9938661312108,53.2085014360382,69.5450088057591,53.4055383209313]},"admterr_id/rayon_admterr_id/name":"Кокшетау Г.А.","admterr_id/rayon_admterr_id/name_kk":"Көкшетау Қ.Ә.","admterr_id/rayon_admterr_id/name_ru":"Кокшетау Г.А.","approved_date":"2008-10-24T00:00:00+00:00","id":"14937612.","name_usl":"Красные линии","number_post":" №986","object_id_i32":1,"usl_i32":55010000},"type":"Feature"},{"collection":"gpreg","geometry":{"bbox":[69.3695554780001,53.2534218870001,69.3804951120001,53.2643704760001],"coordinates":[[[69.372068503,53.2534218870001],[69.3739627400001,53.253736265],[69.3743749880001,53.253821121],[69.374759834,53.2539439710001],[69.376444646,53.2550630580001],[69.3772352340001,53.2555728660001],[69.3776569780001,53.255838134],[69.378715861,53.256649231],[69.37887578,53.2567630230001],[69.3797235420001,53.257394022],[69.379857047,53.257492857],[69.3804951120001,53.257970137],[69.380346816,53.258443146],[69.379477094,53.26198967],[69.3793858270001,53.262379788],[69.379208771,53.2630375570001],[69.3791734960001,53.263168609],[69.378849974,53.2643704760001],[69.3780056580001,53.2643060880001],[69.3778818010001,53.2642969550001],[69.3770939410001,53.2642388570001],[69.3768085940001,53.264217816],[69.375811975,53.2641443250001],[69.37567133,53.264133954],[69.374805532,53.264070109],[69.374596534,53.2640546980001],[69.3738506110001,53.2639996930001],[69.373641757,53.263984291],[69.372895343,53.2639286780001],[69.372392409,53.263888147],[69.3715347510001,53.2638110330001],[69.371327115,53.263791661],[69.3704724940001,53.2637153270001],[69.370339867,53.2637033560001],[69.3695554780001,53.2636330720001],[69.3696791610001,53.2630874320001],[69.369701955,53.262984965],[69.369856219,53.262230764],[69.3698744970001,53.262151266],[69.3700770610001,53.2614063950001],[69.370092206,53.261350705],[69.370295733,53.260592478],[69.370315238,53.260512594],[69.3704904790001,53.2597360670001],[69.370532116,53.2595617040001],[69.370764271,53.2586297500001],[69.3708365240001,53.258340833],[69.3709723210001,53.2577978140001],[69.371004349,53.2576697430001],[69.3717545790001,53.2548249720001],[69.3717670240001,53.2547781900001],[69.3719935730001,53.2539169660001],[69.3720686400001,53.253422411]]],"type":"MultiLineString"},"id":"14937613.","properties":{"_release_layer_kind":"red_line","_source_collection":"gpreg-redline","admterr_id/locality_admterr_id":"kz.11.10.10","admterr_id/locality_admterr_id/geometry":{"bbox":[68.9938661312108,53.2085014360382,69.5450088057591,53.4055383209313]},"admterr_id/locality_admterr_id/name":"г.Кокшетау","admterr_id/locality_admterr_id/name_kk":"Көкшетау қ.","admterr_id/locality_admterr_id/name_ru":"г.Кокшетау","admterr_id/oblast_admterr_id":"kz.11","admterr_id/oblast_admterr_id/geometry":{"bbox":[65.3511897767069,50.0393502247237,74.2592871444736,53.6843580486921]},"admterr_id/oblast_admterr_id/name":"Акмолинская область","admterr_id/oblast_admterr_id/name_kk":"Ақмола облысы","admterr_id/oblast_admterr_id/name_ru":"Акмолинская область","admterr_id/rayon_admterr_id":"kz.11.10","admterr_id/rayon_admterr_id/geometry":{"bbox":[68.9938661312108,53.2085014360382,69.5450088057591,53.4055383209313]},"admterr_id/rayon_admterr_id/name":"Кокшетау Г.А.","admterr_id/rayon_admterr_id/name_kk":"Көкшетау Қ.Ә.","admterr_id/rayon_admterr_id/name_ru":"Кокшетау Г.А.","approved_date":"2008-10-24T00:00:00+00:00","id":"14937613.","name_usl":"Красные линии","number_post":" №986","object_id_i32":1,"usl_i32":55010000},"type":"Feature"},{"collection":"gpreg","geometry":{"bbox":[69.340877671,53.2499673520001,69.3717196900001,53.2580713990001],"coordinates":[[[69.340877671,53.2537614980001],[69.342408919,53.252801536],[69.343636345,53.2521197610001],[69.344911864,53.2515196050001],[69.3454109360001,53.2513214210001],[69.346482666,53.2510083620001],[69.3479177720001,53.2507221110001],[69.3500652370001,53.2502378040001],[69.3511970850001,53.2500534260001],[69.3518321130001,53.2499891190001],[69.3525271780001,53.2499673520001],[69.3531340150001,53.249973181],[69.3535602870001,53.249989084],[69.3545823010001,53.250078435],[69.355278093,53.250139265],[69.355428858,53.2501524460001],[69.3555689880001,53.2501646960001],[69.357002949,53.250327955],[69.35786819,53.2504828450001],[69.3609346100001,53.2511202330001],[69.3643953820001,53.2517606050001],[69.3669725560001,53.252145253],[69.36866624,53.2523958840001],[69.3687085560001,53.2524021990001],[69.3717196900001,53.252769464],[69.371672464,53.2530771410001],[69.368616134,53.252568008],[69.3645221450001,53.2518862220001],[69.3607302280001,53.251254278],[69.3587089740001,53.2509261170001],[69.3585243931543,53.2509069543079],[69.3583389166364,53.2509009743927],[69.3581534847653,53.2509082075758],[69.3579690376318,53.2509286171844],[69.3577865103289,53.2509620997462],[69.3576068282236,53.2510084855148],[69.3574309022588,53.251067539326],[69.3572596243321,53.2511389617939],[69.3570938627694,53.2512223908244],[69.3569344579469,53.251317403457],[69.356782218,53.2514235180001],[69.35390669,53.254007986],[69.351618638,53.256120503],[69.3515594739105,53.2562028321182],[69.351506026842,53.256288982474],[69.3514585426746,53.2563785577331],[69.3514172398609,53.2564711458017],[69.3513823084104,53.2565663207315],[69.3513539090345,53.2566636446663],[69.3513321723767,53.256762669871],[69.3513171984414,53.256862940776],[69.3513090561137,53.2569639960857],[69.3513077828538,53.2570653708935],[69.3513133845154,53.2571665988271],[69.3513258353341,53.257267214185],[69.3513450780265,53.2573667540855],[69.3513710240695,53.2574647605961],[69.3514035540938,53.2575607828367],[69.3514425184439,53.2576543790565],[69.3514877378693,53.2577451186662],[69.3515390043358,53.2578325842169],[69.3515960819915,53.2579163733217],[69.3516587082517,53.2579961005114],[69.3517265950001,53.2580713990001]]],"type":"MultiLineString"},"id":"14937614.","properties":{"_release_layer_kind":"red_line","_source_collection":"gpreg-redline","admterr_id/locality_admterr_id":"kz.11.10.10","admterr_id/locality_admterr_id/geometry":{"bbox":[68.9938661312108,53.2085014360382,69.5450088057591,53.4055383209313]},"admterr_id/locality_admterr_id/name":"г.Кокшетау","admterr_id/locality_admterr_id/name_kk":"Көкшетау қ.","admterr_id/locality_admterr_id/name_ru":"г.Кокшетау","admterr_id/oblast_admterr_id":"kz.11","admterr_id/oblast_admterr_id/geometry":{"bbox":[65.3511897767069,50.0393502247237,74.2592871444736,53.6843580486921]},"admterr_id/oblast_admterr_id/name":"Акмолинская область","admterr_id/oblast_admterr_id/name_kk":"Ақмола облысы","admterr_id/oblast_admterr_id/name_ru":"Акмолинская область","admterr_id/rayon_admterr_id":"kz.11.10","admterr_id/rayon_admterr_id/geometry":{"bbox":[68.9938661312108,53.2085014360382,69.5450088057591,53.4055383209313]},"admterr_id/rayon_admterr_id/name":"Кокшетау Г.А.","admterr_id/rayon_admterr_id/name_kk":"Көкшетау Қ.Ә.","admterr_id/rayon_admterr_id/name_ru":"Кокшетау Г.А.","approved_date":"2008-10-24T00:00:00+00:00","id":"14937614.","name_usl":"Красные линии","number_post":" №986","object_id_i32":1,"usl_i32":55010000},"type":"Feature"},{"collection":"gpreg","geometry":{"bbox":[69.340775433,53.2537645520001,69.346255586,53.2607640100001],"coordinates":[[[69.3408771640001,53.2537645520001],[69.340775433,53.2543765930001],[69.3408449620001,53.2563138460001],[69.340982099,53.257185398],[69.3413327580001,53.2578431800001],[69.3417658450001,53.258097014],[69.3435683450001,53.2591696280001],[69.3458856,53.2605174170001],[69.346255586,53.2607640100001]]],"type":"MultiLineString"},"id":"14937615.","properties":{"_release_layer_kind":"red_line","_source_collection":"gpreg-redline","admterr_id/locality_admterr_id":"kz.11.10.10","admterr_id/locality_admterr_id/geometry":{"bbox":[68.9938661312108,53.2085014360382,69.5450088057591,53.4055383209313]},"admterr_id/locality_admterr_id/name":"г.Кокшетау","admterr_id/locality_admterr_id/name_kk":"Көкшетау қ.","admterr_id/locality_admterr_id/name_ru":"г.Кокшетау","admterr_id/oblast_admterr_id":"kz.11","admterr_id/oblast_admterr_id/geometry":{"bbox":[65.3511897767069,50.0393502247237,74.2592871444736,53.6843580486921]},"admterr_id/oblast_admterr_id/name":"Акмолинская область","admterr_id/oblast_admterr_id/name_kk":"Ақмола облысы","admterr_id/oblast_admterr_id/name_ru":"Акмолинская область","admterr_id/rayon_admterr_id":"kz.11.10","admterr_id/rayon_admterr_id/geometry":{"bbox":[68.9938661312108,53.2085014360382,69.5450088057591,53.4055383209313]},"admterr_id/rayon_admterr_id/name":"Кокшетау Г.А.","admterr_id/rayon_admterr_id/name_kk":"Көкшетау Қ.Ә.","admterr_id/rayon_admterr_id/name_ru":"Кокшетау Г.А.","approved_date":"2008-10-24T00:00:00+00:00","id":"14937615.","name_usl":"Красные линии","number_post":" №986","object_id_i32":1,"usl_i32":55010000},"type":"Feature"},{"collection":"gpreg","geometry":{"bbox":[69.381712699,53.253871142,69.38849838,53.256534222],"coordinates":[[[69.3848293300001,53.253871142],[69.387742679,53.2541109740001],[69.38849838,53.2541987700001],[69.387747286,53.254528371],[69.3832940090001,53.256534222],[69.3825185680001,53.2559299270001],[69.3823887730001,53.255829691],[69.381712699,53.255309546],[69.3841750860001,53.254173097],[69.3848293300001,53.253871142]]],"type":"MultiLineString"},"id":"14937616.","properties":{"_release_layer_kind":"red_line","_source_collection":"gpreg-redline","admterr_id/locality_admterr_id":"kz.11.10.10","admterr_id/locality_admterr_id/geometry":{"bbox":[68.9938661312108,53.2085014360382,69.5450088057591,53.4055383209313]},"admterr_id/locality_admterr_id/name":"г.Кокшетау","admterr_id/locality_admterr_id/name_kk":"Көкшетау қ.","admterr_id/locality_admterr_id/name_ru":"г.Кокшетау","admterr_id/oblast_admterr_id":"kz.11","admterr_id/oblast_admterr_id/geometry":{"bbox":[65.3511897767069,50.0393502247237,74.2592871444736,53.6843580486921]},"admterr_id/oblast_admterr_id/name":"Акмолинская область","admterr_id/oblast_admterr_id/name_kk":"Ақмола облысы","admterr_id/oblast_admterr_id/name_ru":"Акмолинская область","admterr_id/rayon_admterr_id":"kz.11.10","admterr_id/rayon_admterr_id/geometry":{"bbox":[68.9938661312108,53.2085014360382,69.5450088057591,53.4055383209313]},"admterr_id/rayon_admterr_id/name":"Кокшетау Г.А.","admterr_id/rayon_admterr_id/name_kk":"Көкшетау Қ.Ә.","admterr_id/rayon_admterr_id/name_ru":"Кокшетау Г.А.","approved_date":"2008-10-24T00:00:00+00:00","id":"14937616.","name_usl":"Красные линии","number_post":" №986","object_id_i32":1,"usl_i32":55010000},"type":"Feature"},{"collection":"gpreg","geometry":{"bbox":[69.337810237,53.2540289610001,69.3407750330001,53.257516293],"coordinates":[[[69.3404641010001,53.2540289610001],[69.340402908,53.254397114],[69.3404724370001,53.256334366],[69.340609575,53.2572059170001],[69.3407750330001,53.257516293],[69.3384494640001,53.256153231],[69.337810237,53.2557452250001],[69.3404641010001,53.2540289610001]]],"type":"MultiLineString"},"id":"14937617.","properties":{"_release_layer_kind":"red_line","_source_collection":"gpreg-redline","admterr_id/locality_admterr_id":"kz.11.10.10","admterr_id/locality_admterr_id/geometry":{"bbox":[68.9938661312108,53.2085014360382,69.5450088057591,53.4055383209313]},"admterr_id/locality_admterr_id/name":"г.Кокшетау","admterr_id/locality_admterr_id/name_kk":"Көкшетау қ.","admterr_id/locality_admterr_id/name_ru":"г.Кокшетау","admterr_id/oblast_admterr_id":"kz.11","admterr_id/oblast_admterr_id/geometry":{"bbox":[65.3511897767069,50.0393502247237,74.2592871444736,53.6843580486921]},"admterr_id/oblast_admterr_id/name":"Акмолинская область","admterr_id/oblast_admterr_id/name_kk":"Ақмола облысы","admterr_id/oblast_admterr_id/name_ru":"Акмолинская область","admterr_id/rayon_admterr_id":"kz.11.10","admterr_id/rayon_admterr_id/geometry":{"bbox":[68.9938661312108,53.2085014360382,69.5450088057591,53.4055383209313]},"admterr_id/rayon_admterr_id/name":"Кокшетау Г.А.","admterr_id/rayon_admterr_id/name_kk":"Көкшетау Қ.Ә.","admterr_id/rayon_admterr_id/name_ru":"Кокшетау Г.А.","approved_date":"2008-10-24T00:00:00+00:00","id":"14937617.","name_usl":"Красные линии","number_post":" №986","object_id_i32":1,"usl_i32":55010000},"type":"Feature"},{"collection":"gpreg","geometry":{"bbox":[69.333569072,53.2540480640001,69.336523459,53.257469009],"coordinates":[[[69.333569072,53.2540480640001],[69.336523459,53.2557779790001],[69.3351687620001,53.2566089370001],[69.3338543410001,53.257469009],[69.3336375630001,53.254395431],[69.333569072,53.2540480640001]]],"type":"MultiLineString"},"id":"14937618.","properties":{"_release_layer_kind":"red_line","_source_collection":"gpreg-redline","admterr_id/locality_admterr_id":"kz.11.10.10","admterr_id/locality_admterr_id/geometry":{"bbox":[68.9938661312108,53.2085014360382,69.5450088057591,53.4055383209313]},"admterr_id/locality_admterr_id/name":"г.Кокшетау","admterr_id/locality_admterr_id/name_kk":"Көкшетау қ.","admterr_id/locality_admterr_id/name_ru":"г.Кокшетау","admterr_id/oblast_admterr_id":"kz.11","admterr_id/oblast_admterr_id/geometry":{"bbox":[65.3511897767069,50.0393502247237,74.2592871444736,53.6843580486921]},"admterr_id/oblast_admterr_id/name":"Акмолинская область","admterr_id/oblast_admterr_id/name_kk":"Ақмола облысы","admterr_id/oblast_admterr_id/name_ru":"Акмолинская область","admterr_id/rayon_admterr_id":"kz.11.10","admterr_id/rayon_admterr_id/geometry":{"bbox":[68.9938661312108,53.2085014360382,69.5450088057591,53.4055383209313]},"admterr_id/rayon_admterr_id/name":"Кокшетау Г.А.","admterr_id/rayon_admterr_id/name_kk":"Көкшетау Қ.Ә.","admterr_id/rayon_admterr_id/name_ru":"Кокшетау Г.А.","approved_date":"2008-10-24T00:00:00+00:00","id":"14937618.","name_usl":"Красные линии","number_post":" №986","object_id_i32":1,"usl_i32":55010000},"type":"Feature"},{"collection":"gpreg","geometry":{"bbox":[69.354371099,53.2523708360001,69.358626031,53.2553548600001],"coordinates":[[[69.358626031,53.254197967],[69.3562161830001,53.2523708360001],[69.354371099,53.254074115],[69.3563247600001,53.2553548600001],[69.358626031,53.254197967]]],"type":"MultiLineString"},"id":"14937619.","properties":{"_release_layer_kind":"red_line","_source_collection":"gpreg-redline","admterr_id/locality_admterr_id":"kz.11.10.10","admterr_id/locality_admterr_id/geometry":{"bbox":[68.9938661312108,53.2085014360382,69.5450088057591,53.4055383209313]},"admterr_id/locality_admterr_id/name":"г.Кокшетау","admterr_id/locality_admterr_id/name_kk":"Көкшетау қ.","admterr_id/locality_admterr_id/name_ru":"г.Кокшетау","admterr_id/oblast_admterr_id":"kz.11","admterr_id/oblast_admterr_id/geometry":{"bbox":[65.3511897767069,50.0393502247237,74.2592871444736,53.6843580486921]},"admterr_id/oblast_admterr_id/name":"Акмолинская область","admterr_id/oblast_admterr_id/name_kk":"Ақмола облысы","admterr_id/oblast_admterr_id/name_ru":"Акмолинская область","admterr_id/rayon_admterr_id":"kz.11.10","admterr_id/rayon_admterr_id/geometry":{"bbox":[68.9938661312108,53.2085014360382,69.5450088057591,53.4055383209313]},"admterr_id/rayon_admterr_id/name":"Кокшетау Г.А.","admterr_id/rayon_admterr_id/name_kk":"Көкшетау Қ.Ә.","admterr_id/rayon_admterr_id/name_ru":"Кокшетау Г.А.","approved_date":"2008-10-24T00:00:00+00:00","id":"14937619.","name_usl":"Красные линии","number_post":" №986","object_id_i32":1,"usl_i32":55010000},"type":"Feature"},{"collection":"gpreg","geometry":{"bbox":[69.3835270150001,53.2542564450001,69.3987783600001,53.260539577],"coordinates":[[[69.388994826,53.2542564450001],[69.392406291,53.254713167],[69.3939902340001,53.2548750810001],[69.3950818590001,53.2550303020001],[69.3953960474623,53.2551089815327],[69.3957125252009,53.2551778778243],[69.3960309876638,53.2552369245786],[69.3963511283837,53.2552860649685],[69.3966726392819,53.2553252517055],[69.3969952109596,53.2553544470823],[69.397318533,53.2553736230001],[69.3987783600001,53.2554562650001],[69.398465565,53.256991558],[69.397251543,53.2588432960001],[69.3960242150001,53.2597423670001],[69.395082287,53.2601251610001],[69.3936301950001,53.260539577],[69.3899421770001,53.2601850510001],[69.3867401540001,53.259878777],[69.3862703360001,53.2588390440001],[69.386165641,53.258757217],[69.385349541,53.258125211],[69.3852232520001,53.2580276890001],[69.384447294,53.2574249020001],[69.3843180150001,53.257325377],[69.3835270150001,53.256714564],[69.3859598650001,53.2556183630001],[69.386452385,53.2553973510001],[69.3869319820001,53.255182656],[69.3873412980001,53.2550011010001],[69.3875647180001,53.254899406],[69.3878595510001,53.254767422],[69.388994826,53.2542564450001]]],"type":"MultiLineString"},"id":"14937620.","properties":{"_release_layer_kind":"red_line","_source_collection":"gpreg-redline","admterr_id/locality_admterr_id":"kz.11.10.10","admterr_id/locality_admterr_id/geometry":{"bbox":[68.9938661312108,53.2085014360382,69.5450088057591,53.4055383209313]},"admterr_id/locality_admterr_id/name":"г.Кокшетау","admterr_id/locality_admterr_id/name_kk":"Көкшетау қ.","admterr_id/locality_admterr_id/name_ru":"г.Кокшетау","admterr_id/oblast_admterr_id":"kz.11","admterr_id/oblast_admterr_id/geometry":{"bbox":[65.3511897767069,50.0393502247237,74.2592871444736,53.6843580486921]},"admterr_id/oblast_admterr_id/name":"Акмолинская область","admterr_id/oblast_admterr_id/name_kk":"Ақмола облысы","admterr_id/oblast_admterr_id/name_ru":"Акмолинская область","admterr_id/rayon_admterr_id":"kz.11.10","admterr_id/rayon_admterr_id/geometry":{"bbox":[68.9938661312108,53.2085014360382,69.5450088057591,53.4055383209313]},"admterr_id/rayon_admterr_id/name":"Кокшетау Г.А.","admterr_id/rayon_admterr_id/name_kk":"Көкшетау Қ.Ә.","admterr_id/rayon_admterr_id/name_ru":"Кокшетау Г.А.","approved_date":"2008-10-24T00:00:00+00:00","id":"14937620.","name_usl":"Красные линии","number_post":" №986","object_id_i32":1,"usl_i32":55010000},"type":"Feature"},{"collection":"pdpreg","geometry":{"bbox":[68.3436486240001,51.8307332030001,68.345061054,51.8330357410001],"coordinates":[[[68.345061054,51.8307332030001],[68.3436486240001,51.8330357410001]]],"type":"MultiLineString"},"id":"10230502.","properties":{"_release_layer_kind":"red_line","_source_collection":"pdpreg-redline","admterr_id/locality_admterr_id":"kz.11.38.201","admterr_id/locality_admterr_id/geometry":{"bbox":[68.2717051363021,51.7472741971886,68.4574141884111,51.8636115644419]},"admterr_id/locality_admterr_id/name":"г.Атбасар","admterr_id/locality_admterr_id/name_kk":"Атбасар қ.","admterr_id/locality_admterr_id/name_ru":"г.Атбасар","admterr_id/rayon_admterr_id":"kz.11.38","admterr_id/rayon_admterr_id/geometry":{"bbox":[67.7196257801397,50.6174259199747,69.267732777934,52.2133676141954]},"admterr_id/rayon_admterr_id/name":"Атбасарский район","admterr_id/rayon_admterr_id/name_kk":"Атбасар ауданы","admterr_id/rayon_admterr_id/name_ru":"Атбасарский район","approved_date":"2014-12-26T00:00:00+00:00","id":"10230502.","name_usl":"Красные линии","number_post":"№A-12/592","object_id_i32":1,"usl_i32":55010001},"type":"Feature"},{"collection":"pdpreg","geometry":{"bbox":[68.3476076570001,51.8340312510001,68.348763343,51.8343218460001],"coordinates":[[[68.348763343,51.8343218460001],[68.3476076570001,51.8340312510001]]],"type":"MultiLineString"},"id":"10230503.","properties":{"_release_layer_kind":"red_line","_source_collection":"pdpreg-redline","admterr_id/locality_admterr_id":"kz.11.38.201","admterr_id/locality_admterr_id/geometry":{"bbox":[68.2717051363021,51.7472741971886,68.4574141884111,51.8636115644419]},"admterr_id/locality_admterr_id/name":"г.Атбасар","admterr_id/locality_admterr_id/name_kk":"Атбасар қ.","admterr_id/locality_admterr_id/name_ru":"г.Атбасар","admterr_id/rayon_admterr_id":"kz.11.38","admterr_id/rayon_admterr_id/geometry":{"bbox":[67.7196257801397,50.6174259199747,69.267732777934,52.2133676141954]},"admterr_id/rayon_admterr_id/name":"Атбасарский район","admterr_id/rayon_admterr_id/name_kk":"Атбасар ауданы","admterr_id/rayon_admterr_id/name_ru":"Атбасарский район","approved_date":"2014-12-26T00:00:00+00:00","id":"10230503.","name_usl":"Красные линии","number_post":"№A-12/592","object_id_i32":2,"usl_i32":55010001},"type":"Feature"},{"collection":"pdpreg","geometry":{"bbox":[68.3461938950001,51.8336757590001,68.3474028190001,51.833979744],"coordinates":[[[68.3474028190001,51.833979744],[68.3461938950001,51.8336757590001]]],"type":"MultiLineString"},"id":"10230504.","properties":{"_release_layer_kind":"red_line","_source_collection":"pdpreg-redline","admterr_id/locality_admterr_id":"kz.11.38.201","admterr_id/locality_admterr_id/geometry":{"bbox":[68.2717051363021,51.7472741971886,68.4574141884111,51.8636115644419]},"admterr_id/locality_admterr_id/name":"г.Атбасар","admterr_id/locality_admterr_id/name_kk":"Атбасар қ.","admterr_id/locality_admterr_id/name_ru":"г.Атбасар","admterr_id/rayon_admterr_id":"kz.11.38","admterr_id/rayon_admterr_id/geometry":{"bbox":[67.7196257801397,50.6174259199747,69.267732777934,52.2133676141954]},"admterr_id/rayon_admterr_id/name":"Атбасарский район","admterr_id/rayon_admterr_id/name_kk":"Атбасар ауданы","admterr_id/rayon_admterr_id/name_ru":"Атбасарский район","approved_date":"2014-12-26T00:00:00+00:00","id":"10230504.","name_usl":"Красные линии","number_post":"№A-12/592","object_id_i32":3,"usl_i32":55010001},"type":"Feature"},{"collection":"pdpreg","geometry":{"bbox":[68.3448112790001,51.8333280960001,68.345989058,51.833624252],"coordinates":[[[68.345989058,51.833624252],[68.3448112790001,51.8333280960001]]],"type":"MultiLineString"},"id":"10230505.","properties":{"_release_layer_kind":"red_line","_source_collection":"pdpreg-redline","admterr_id/locality_admterr_id":"kz.11.38.201","admterr_id/locality_admterr_id/geometry":{"bbox":[68.2717051363021,51.7472741971886,68.4574141884111,51.8636115644419]},"admterr_id/locality_admterr_id/name":"г.Атбасар","admterr_id/locality_admterr_id/name_kk":"Атбасар қ.","admterr_id/locality_admterr_id/name_ru":"г.Атбасар","admterr_id/rayon_admterr_id":"kz.11.38","admterr_id/rayon_admterr_id/geometry":{"bbox":[67.7196257801397,50.6174259199747,69.267732777934,52.2133676141954]},"admterr_id/rayon_admterr_id/name":"Атбасарский район","admterr_id/rayon_admterr_id/name_kk":"Атбасар ауданы","admterr_id/rayon_admterr_id/name_ru":"Атбасарский район","approved_date":"2014-12-26T00:00:00+00:00","id":"10230505.","name_usl":"Красные линии","number_post":"№A-12/592","object_id_i32":4,"usl_i32":55010001},"type":"Feature"},{"collection":"pdpreg","geometry":{"bbox":[68.3436486240001,51.8330357410001,68.344606438,51.833276588],"coordinates":[[[68.344606438,51.833276588],[68.3436486240001,51.8330357410001]]],"type":"MultiLineString"},"id":"10230506.","properties":{"_release_layer_kind":"red_line","_source_collection":"pdpreg-redline","admterr_id/locality_admterr_id":"kz.11.38.201","admterr_id/locality_admterr_id/geometry":{"bbox":[68.2717051363021,51.7472741971886,68.4574141884111,51.8636115644419]},"admterr_id/locality_admterr_id/name":"г.Атбасар","admterr_id/locality_admterr_id/name_kk":"Атбасар қ.","admterr_id/locality_admterr_id/name_ru":"г.Атбасар","admterr_id/rayon_admterr_id":"kz.11.38","admterr_id/rayon_admterr_id/geometry":{"bbox":[67.7196257801397,50.6174259199747,69.267732777934,52.2133676141954]},"admterr_id/rayon_admterr_id/name":"Атбасарский район","admterr_id/rayon_admterr_id/name_kk":"Атбасар ауданы","admterr_id/rayon_admterr_id/name_ru":"Атбасарский район","approved_date":"2014-12-26T00:00:00+00:00","id":"10230506.","name_usl":"Красные линии","number_post":"№A-12/592","object_id_i32":5,"usl_i32":55010001},"type":"Feature"},{"collection":"pdpreg","geometry":{"bbox":[68.3490964860001,51.8316042170001,68.3502518070001,51.831895425],"coordinates":[[[68.3502518070001,51.831895425],[68.3490964860001,51.8316042170001]]],"type":"MultiLineString"},"id":"10230507.","properties":{"_release_layer_kind":"red_line","_source_collection":"pdpreg-redline","admterr_id/locality_admterr_id":"kz.11.38.201","admterr_id/locality_admterr_id/geometry":{"bbox":[68.2717051363021,51.7472741971886,68.4574141884111,51.8636115644419]},"admterr_id/locality_admterr_id/name":"г.Атбасар","admterr_id/locality_admterr_id/name_kk":"Атбасар қ.","admterr_id/locality_admterr_id/name_ru":"г.Атбасар","admterr_id/rayon_admterr_id":"kz.11.38","admterr_id/rayon_admterr_id/geometry":{"bbox":[67.7196257801397,50.6174259199747,69.267732777934,52.2133676141954]},"admterr_id/rayon_admterr_id/name":"Атбасарский район","admterr_id/rayon_admterr_id/name_kk":"Атбасар ауданы","admterr_id/rayon_admterr_id/name_ru":"Атбасарский район","approved_date":"2014-12-26T00:00:00+00:00","id":"10230507.","name_usl":"Красные линии","number_post":"№A-12/592","object_id_i32":6,"usl_i32":55010001},"type":"Feature"},{"collection":"pdpreg","geometry":{"bbox":[68.3490188370001,51.831730803,68.350174156,51.8320220090001],"coordinates":[[[68.350174156,51.8320220090001],[68.3490188370001,51.831730803]]],"type":"MultiLineString"},"id":"10230508.","properties":{"_release_layer_kind":"red_line","_source_collection":"pdpreg-redline","admterr_id/locality_admterr_id":"kz.11.38.201","admterr_id/locality_admterr_id/geometry":{"bbox":[68.2717051363021,51.7472741971886,68.4574141884111,51.8636115644419]},"admterr_id/locality_admterr_id/name":"г.Атбасар","admterr_id/locality_admterr_id/name_kk":"Атбасар қ.","admterr_id/locality_admterr_id/name_ru":"г.Атбасар","admterr_id/rayon_admterr_id":"kz.11.38","admterr_id/rayon_admterr_id/geometry":{"bbox":[67.7196257801397,50.6174259199747,69.267732777934,52.2133676141954]},"admterr_id/rayon_admterr_id/name":"Атбасарский район","admterr_id/rayon_admterr_id/name_kk":"Атбасар ауданы","admterr_id/rayon_admterr_id/name_ru":"Атбасарский район","approved_date":"2014-12-26T00:00:00+00:00","id":"10230508.","name_usl":"Красные линии","number_post":"№A-12/592","object_id_i32":7,"usl_i32":55010001},"type":"Feature"},{"collection":"pdpreg","geometry":{"bbox":[68.347605521,51.831374565,68.3488140630001,51.8316791890001],"coordinates":[[[68.3488140630001,51.8316791890001],[68.347605521,51.831374565]]],"type":"MultiLineString"},"id":"10230509.","properties":{"_release_layer_kind":"red_line","_source_collection":"pdpreg-redline","admterr_id/locality_admterr_id":"kz.11.38.201","admterr_id/locality_admterr_id/geometry":{"bbox":[68.2717051363021,51.7472741971886,68.4574141884111,51.8636115644419]},"admterr_id/locality_admterr_id/name":"г.Атбасар","admterr_id/locality_admterr_id/name_kk":"Атбасар қ.","admterr_id/locality_admterr_id/name_ru":"г.Атбасар","admterr_id/rayon_admterr_id":"kz.11.38","admterr_id/rayon_admterr_id/geometry":{"bbox":[67.7196257801397,50.6174259199747,69.267732777934,52.2133676141954]},"admterr_id/rayon_admterr_id/name":"Атбасарский район","admterr_id/rayon_admterr_id/name_kk":"Атбасар ауданы","admterr_id/rayon_admterr_id/name_ru":"Атбасарский район","approved_date":"2014-12-26T00:00:00+00:00","id":"10230509.","name_usl":"Красные линии","number_post":"№A-12/592","object_id_i32":8,"usl_i32":55010001},"type":"Feature"},{"collection":"pdpreg","geometry":{"bbox":[68.3462233400001,51.8310261710001,68.3474007470001,51.8313229500001],"coordinates":[[[68.3474007470001,51.8313229500001],[68.3462233400001,51.8310261710001]]],"type":"MultiLineString"},"id":"10230510.","properties":{"_release_layer_kind":"red_line","_source_collection":"pdpreg-redline","admterr_id/locality_admterr_id":"kz.11.38.201","admterr_id/locality_admterr_id/geometry":{"bbox":[68.2717051363021,51.7472741971886,68.4574141884111,51.8636115644419]},"admterr_id/locality_admterr_id/name":"г.Атбасар","admterr_id/locality_admterr_id/name_kk":"Атбасар қ.","admterr_id/locality_admterr_id/name_ru":"г.Атбасар","admterr_id/rayon_admterr_id":"kz.11.38","admterr_id/rayon_admterr_id/geometry":{"bbox":[67.7196257801397,50.6174259199747,69.267732777934,52.2133676141954]},"admterr_id/rayon_admterr_id/name":"Атбасарский район","admterr_id/rayon_admterr_id/name_kk":"Атбасар ауданы","admterr_id/rayon_admterr_id/name_ru":"Атбасарский район","approved_date":"2014-12-26T00:00:00+00:00","id":"10230510.","name_usl":"Красные линии","number_post":"№A-12/592","object_id_i32":9,"usl_i32":55010001},"type":"Feature"},{"collection":"pdpreg","geometry":{"bbox":[68.345061054,51.8307332030001,68.3460185660001,51.8309745560001],"coordinates":[[[68.3460185660001,51.8309745560001],[68.345061054,51.8307332030001]]],"type":"MultiLineString"},"id":"10230511.","properties":{"_release_layer_kind":"red_line","_source_collection":"pdpreg-redline","admterr_id/locality_admterr_id":"kz.11.38.201","admterr_id/locality_admterr_id/geometry":{"bbox":[68.2717051363021,51.7472741971886,68.4574141884111,51.8636115644419]},"admterr_id/locality_admterr_id/name":"г.Атбасар","admterr_id/locality_admterr_id/name_kk":"Атбасар қ.","admterr_id/locality_admterr_id/name_ru":"г.Атбасар","admterr_id/rayon_admterr_id":"kz.11.38","admterr_id/rayon_admterr_id/geometry":{"bbox":[67.7196257801397,50.6174259199747,69.267732777934,52.2133676141954]},"admterr_id/rayon_admterr_id/name":"Атбасарский район","admterr_id/rayon_admterr_id/name_kk":"Атбасар ауданы","admterr_id/rayon_admterr_id/name_ru":"Атбасарский район","approved_date":"2014-12-26T00:00:00+00:00","id":"10230511.","name_usl":"Красные линии","number_post":"№A-12/592","object_id_i32":10,"usl_i32":55010001},"type":"Feature"},{"collection":"pdpreg","geometry":{"bbox":[68.3490188370001,51.831730803,68.350174156,51.8320220090001],"coordinates":[[[68.350174156,51.8320220090001],[68.3490188370001,51.831730803]]],"type":"MultiLineString"},"id":"10230512.","properties":{"_release_layer_kind":"red_line","_source_collection":"pdpreg-redline","admterr_id/locality_admterr_id":"kz.11.38.201","admterr_id/locality_admterr_id/geometry":{"bbox":[68.2717051363021,51.7472741971886,68.4574141884111,51.8636115644419]},"admterr_id/locality_admterr_id/name":"г.Атбасар","admterr_id/locality_admterr_id/name_kk":"Атбасар қ.","admterr_id/locality_admterr_id/name_ru":"г.Атбасар","admterr_id/rayon_admterr_id":"kz.11.38","admterr_id/rayon_admterr_id/geometry":{"bbox":[67.7196257801397,50.6174259199747,69.267732777934,52.2133676141954]},"admterr_id/rayon_admterr_id/name":"Атбасарский район","admterr_id/rayon_admterr_id/name_kk":"Атбасар ауданы","admterr_id/rayon_admterr_id/name_ru":"Атбасарский район","approved_date":"2014-12-26T00:00:00+00:00","id":"10230512.","name_usl":"Красные линии","number_post":"№A-12/592","object_id_i32":11,"usl_i32":55010001},"type":"Feature"},{"collection":"pdpreg","geometry":{"bbox":[68.347605521,51.831374565,68.3488140630001,51.8316791890001],"coordinates":[[[68.3488140630001,51.8316791890001],[68.347605521,51.831374565]]],"type":"MultiLineString"},"id":"10230513.","properties":{"_release_layer_kind":"red_line","_source_collection":"pdpreg-redline","admterr_id/locality_admterr_id":"kz.11.38.201","admterr_id/locality_admterr_id/geometry":{"bbox":[68.2717051363021,51.7472741971886,68.4574141884111,51.8636115644419]},"admterr_id/locality_admterr_id/name":"г.Атбасар","admterr_id/locality_admterr_id/name_kk":"Атбасар қ.","admterr_id/locality_admterr_id/name_ru":"г.Атбасар","admterr_id/rayon_admterr_id":"kz.11.38","admterr_id/rayon_admterr_id/geometry":{"bbox":[67.7196257801397,50.6174259199747,69.267732777934,52.2133676141954]},"admterr_id/rayon_admterr_id/name":"Атбасарский район","admterr_id/rayon_admterr_id/name_kk":"Атбасар ауданы","admterr_id/rayon_admterr_id/name_ru":"Атбасарский район","approved_date":"2014-12-26T00:00:00+00:00","id":"10230513.","name_usl":"Красные линии","number_post":"№A-12/592","object_id_i32":12,"usl_i32":55010001},"type":"Feature"},{"collection":"pdpreg","geometry":{"bbox":[68.3462233400001,51.8310261710001,68.3474007470001,51.8313229500001],"coordinates":[[[68.3474007470001,51.8313229500001],[68.3462233400001,51.8310261710001]]],"type":"MultiLineString"},"id":"10230514.","properties":{"_release_layer_kind":"red_line","_source_collection":"pdpreg-redline","admterr_id/locality_admterr_id":"kz.11.38.201","admterr_id/locality_admterr_id/geometry":{"bbox":[68.2717051363021,51.7472741971886,68.4574141884111,51.8636115644419]},"admterr_id/locality_admterr_id/name":"г.Атбасар","admterr_id/locality_admterr_id/name_kk":"Атбасар қ.","admterr_id/locality_admterr_id/name_ru":"г.Атбасар","admterr_id/rayon_admterr_id":"kz.11.38","admterr_id/rayon_admterr_id/geometry":{"bbox":[67.7196257801397,50.6174259199747,69.267732777934,52.2133676141954]},"admterr_id/rayon_admterr_id/name":"Атбасарский район","admterr_id/rayon_admterr_id/name_kk":"Атбасар ауданы","admterr_id/rayon_admterr_id/name_ru":"Атбасарский район","approved_date":"2014-12-26T00:00:00+00:00","id":"10230514.","name_usl":"Красные линии","number_post":"№A-12/592","object_id_i32":13,"usl_i32":55010001},"type":"Feature"},{"collection":"pdpreg","geometry":{"bbox":[68.345061054,51.8307332030001,68.3460185660001,51.8309745560001],"coordinates":[[[68.3460185660001,51.8309745560001],[68.345061054,51.8307332030001]]],"type":"MultiLineString"},"id":"10230515.","properties":{"_release_layer_kind":"red_line","_source_collection":"pdpreg-redline","admterr_id/locality_admterr_id":"kz.11.38.201","admterr_id/locality_admterr_id/geometry":{"bbox":[68.2717051363021,51.7472741971886,68.4574141884111,51.8636115644419]},"admterr_id/locality_admterr_id/name":"г.Атбасар","admterr_id/locality_admterr_id/name_kk":"Атбасар қ.","admterr_id/locality_admterr_id/name_ru":"г.Атбасар","admterr_id/rayon_admterr_id":"kz.11.38","admterr_id/rayon_admterr_id/geometry":{"bbox":[67.7196257801397,50.6174259199747,69.267732777934,52.2133676141954]},"admterr_id/rayon_admterr_id/name":"Атбасарский район","admterr_id/rayon_admterr_id/name_kk":"Атбасар ауданы","admterr_id/rayon_admterr_id/name_ru":"Атбасарский район","approved_date":"2014-12-26T00:00:00+00:00","id":"10230515.","name_usl":"Красные линии","number_post":"№A-12/592","object_id_i32":14,"usl_i32":55010001},"type":"Feature"},{"collection":"pdpreg","geometry":{"bbox":[68.3461938950001,51.831374565,68.347605521,51.8336757590001],"coordinates":[[[68.347605521,51.831374565],[68.3461938950001,51.8336757590001]]],"type":"MultiLineString"},"id":"10230516.","properties":{"_release_layer_kind":"red_line","_source_collection":"pdpreg-redline","admterr_id/locality_admterr_id":"kz.11.38.201","admterr_id/locality_admterr_id/geometry":{"bbox":[68.2717051363021,51.7472741971886,68.4574141884111,51.8636115644419]},"admterr_id/locality_admterr_id/name":"г.Атбасар","admterr_id/locality_admterr_id/name_kk":"Атбасар қ.","admterr_id/locality_admterr_id/name_ru":"г.Атбасар","admterr_id/rayon_admterr_id":"kz.11.38","admterr_id/rayon_admterr_id/geometry":{"bbox":[67.7196257801397,50.6174259199747,69.267732777934,52.2133676141954]},"admterr_id/rayon_admterr_id/name":"Атбасарский район","admterr_id/rayon_admterr_id/name_kk":"Атбасар ауданы","admterr_id/rayon_admterr_id/name_ru":"Атбасарский район","approved_date":"2014-12-26T00:00:00+00:00","id":"10230516.","name_usl":"Красные линии","number_post":"№A-12/592","object_id_i32":15,"usl_i32":55010001},"type":"Feature"},{"collection":"pdpreg","geometry":{"bbox":[68.345989058,51.8313229500001,68.3474007470001,51.833624252],"coordinates":[[[68.3474007470001,51.8313229500001],[68.345989058,51.833624252]]],"type":"MultiLineString"},"id":"10230517.","properties":{"_release_layer_kind":"red_line","_source_collection":"pdpreg-redline","admterr_id/locality_admterr_id":"kz.11.38.201","admterr_id/locality_admterr_id/geometry":{"bbox":[68.2717051363021,51.7472741971886,68.4574141884111,51.8636115644419]},"admterr_id/locality_admterr_id/name":"г.Атбасар","admterr_id/locality_admterr_id/name_kk":"Атбасар қ.","admterr_id/locality_admterr_id/name_ru":"г.Атбасар","admterr_id/rayon_admterr_id":"kz.11.38","admterr_id/rayon_admterr_id/geometry":{"bbox":[67.7196257801397,50.6174259199747,69.267732777934,52.2133676141954]},"admterr_id/rayon_admterr_id/name":"Атбасарский район","admterr_id/rayon_admterr_id/name_kk":"Атбасар ауданы","admterr_id/rayon_admterr_id/name_ru":"Атбасарский район","approved_date":"2014-12-26T00:00:00+00:00","id":"10230517.","name_usl":"Красные линии","number_post":"№A-12/592","object_id_i32":16,"usl_i32":55010001},"type":"Feature"},{"collection":"pdpreg","geometry":{"bbox":[68.348763343,51.8320220090001,68.350174156,51.8343218460001],"coordinates":[[[68.350174156,51.8320220090001],[68.348763343,51.8343218460001]]],"type":"MultiLineString"},"id":"10230518.","properties":{"_release_layer_kind":"red_line","_source_collection":"pdpreg-redline","admterr_id/locality_admterr_id":"kz.11.38.201","admterr_id/locality_admterr_id/geometry":{"bbox":[68.2717051363021,51.7472741971886,68.4574141884111,51.8636115644419]},"admterr_id/locality_admterr_id/name":"г.Атбасар","admterr_id/locality_admterr_id/name_kk":"Атбасар қ.","admterr_id/locality_admterr_id/name_ru":"г.Атбасар","admterr_id/rayon_admterr_id":"kz.11.38","admterr_id/rayon_admterr_id/geometry":{"bbox":[67.7196257801397,50.6174259199747,69.267732777934,52.2133676141954]},"admterr_id/rayon_admterr_id/name":"Атбасарский район","admterr_id/rayon_admterr_id/name_kk":"Атбасар ауданы","admterr_id/rayon_admterr_id/name_ru":"Атбасарский район","approved_date":"2014-12-26T00:00:00+00:00","id":"10230518.","name_usl":"Красные линии","number_post":"№A-12/592","object_id_i32":17,"usl_i32":55010001},"type":"Feature"},{"collection":"pdpreg","geometry":{"bbox":[68.3474028190001,51.8316791890001,68.3488140630001,51.833979744],"coordinates":[[[68.3488140630001,51.8316791890001],[68.3474028190001,51.833979744]]],"type":"MultiLineString"},"id":"10230519.","properties":{"_release_layer_kind":"red_line","_source_collection":"pdpreg-redline","admterr_id/locality_admterr_id":"kz.11.38.201","admterr_id/locality_admterr_id/geometry":{"bbox":[68.2717051363021,51.7472741971886,68.4574141884111,51.8636115644419]},"admterr_id/locality_admterr_id/name":"г.Атбасар","admterr_id/locality_admterr_id/name_kk":"Атбасар қ.","admterr_id/locality_admterr_id/name_ru":"г.Атбасар","admterr_id/rayon_admterr_id":"kz.11.38","admterr_id/rayon_admterr_id/geometry":{"bbox":[67.7196257801397,50.6174259199747,69.267732777934,52.2133676141954]},"admterr_id/rayon_admterr_id/name":"Атбасарский район","admterr_id/rayon_admterr_id/name_kk":"Атбасар ауданы","admterr_id/rayon_admterr_id/name_ru":"Атбасарский район","approved_date":"2014-12-26T00:00:00+00:00","id":"10230519.","name_usl":"Красные линии","number_post":"№A-12/592","object_id_i32":18,"usl_i32":55010001},"type":"Feature"},{"collection":"pdpreg","geometry":{"bbox":[68.3476076570001,51.831730803,68.3490188370001,51.8340312510001],"coordinates":[[[68.3490188370001,51.831730803],[68.3476076570001,51.8340312510001]]],"type":"MultiLineString"},"id":"10230520.","properties":{"_release_layer_kind":"red_line","_source_collection":"pdpreg-redline","admterr_id/locality_admterr_id":"kz.11.38.201","admterr_id/locality_admterr_id/geometry":{"bbox":[68.2717051363021,51.7472741971886,68.4574141884111,51.8636115644419]},"admterr_id/locality_admterr_id/name":"г.Атбасар","admterr_id/locality_admterr_id/name_kk":"Атбасар қ.","admterr_id/locality_admterr_id/name_ru":"г.Атбасар","admterr_id/rayon_admterr_id":"kz.11.38","admterr_id/rayon_admterr_id/geometry":{"bbox":[67.7196257801397,50.6174259199747,69.267732777934,52.2133676141954]},"admterr_id/rayon_admterr_id/name":"Атбасарский район","admterr_id/rayon_admterr_id/name_kk":"Атбасар ауданы","admterr_id/rayon_admterr_id/name_ru":"Атбасарский район","approved_date":"2014-12-26T00:00:00+00:00","id":"10230520.","name_usl":"Красные линии","number_post":"№A-12/592","object_id_i32":19,"usl_i32":55010001},"type":"Feature"},{"collection":"pdpreg","geometry":{"bbox":[68.3448112790001,51.8310261710001,68.3462233400001,51.8333280960001],"coordinates":[[[68.3462233400001,51.8310261710001],[68.3448112790001,51.8333280960001]]],"type":"MultiLineString"},"id":"10230521.","properties":{"_release_layer_kind":"red_line","_source_collection":"pdpreg-redline","admterr_id/locality_admterr_id":"kz.11.38.201","admterr_id/locality_admterr_id/geometry":{"bbox":[68.2717051363021,51.7472741971886,68.4574141884111,51.8636115644419]},"admterr_id/locality_admterr_id/name":"г.Атбасар","admterr_id/locality_admterr_id/name_kk":"Атбасар қ.","admterr_id/locality_admterr_id/name_ru":"г.Атбасар","admterr_id/rayon_admterr_id":"kz.11.38","admterr_id/rayon_admterr_id/geometry":{"bbox":[67.7196257801397,50.6174259199747,69.267732777934,52.2133676141954]},"admterr_id/rayon_admterr_id/name":"Атбасарский район","admterr_id/rayon_admterr_id/name_kk":"Атбасар ауданы","admterr_id/rayon_admterr_id/name_ru":"Атбасарский район","approved_date":"2014-12-26T00:00:00+00:00","id":"10230521.","name_usl":"Красные линии","number_post":"№A-12/592","object_id_i32":20,"usl_i32":55010001},"type":"Feature"}],"type":"FeatureCollection"}